{"type":"FeatureCollection","metadata":{"generated":1787651282000,"url":"https://earthquake.usgs.gov/fdsnws/event/1/query?format=geojson&starttime=2026-02-01&endtime=2026-03-01&minmagnitude=2.5&minlatitude=31.0&maxlatitude=37.0&minlongitude=-104.5&maxlongitude=-94.4","title":"USGS Earthquakes","status":200,"api":"2.7.0","count":47},"features":[{"type":"Feature","properties":{"mag":2.53,"place":"6 km SE of Ratliff City, Oklahoma","time":1772252414359,"updated":1778882552040,"tz":null,"url":"https://earthquake.usgs.gov/earthquakes/eventpage/ok2026echt","detail":"https://earthquake.usgs.gov/fdsnws/event/1/query?eventid=ok2026echt&format=geojson","felt":2,"cdi":2,"mmi":null,"alert":null,"status":"reviewed","tsunami":0,"sig":99,"net":"ok","code":"2026echt","ids":",ok2026echt,us7000s0zq,","sources":",ok,us,","types":",dyfi,origin,phase-data,","nst":92,"dmin":0,"rms":0.36,"gap":41,"magType":"ml","type":"earthquake","title":"M 2.5 - 6 km SE of Ratliff City, Oklahoma"},"geometry":{"type":"Point","coordinates":[-97.4495,34.4115,5.69]},"id":"ok2026echt"},
{"type":"Feature","properties":{"mag":3.1,"place":"57 km S of Whites City, New Mexico","time":1772219700130,"updated":1778882550040,"tz":null,"url":"https://earthquake.usgs.gov/earthquakes/eventpage/tx2026eccrky","detail":"https://earthquake.usgs.gov/fdsnws/event/1/query?eventid=tx2026eccrky&format=geojson","felt":1,"cdi":2.2,"mmi":null,"alert":null,"status":"reviewed","tsunami":0,"sig":148,"net":"tx","code":"2026eccrky","ids":",tx2026eccrky,us7000s0vg,","sources":",tx,us,","types":",dyfi,origin,phase-data,","nst":37,"dmin":0,"rms":0.1,"gap":71,"magType":"ml","type":"earthquake","title":"M 3.1 - 57 km S of Whites City, New Mexico"},"geometry":{"type":"Point","coordinates":[-104.396,31.655,5.5359]},"id":"tx2026eccrky"},
{"type":"Feature","properties":{"mag":2.6,"place":"56 km S of Whites City, New Mexico","time":1772201365154,"updated":1778882550040,"tz":null,"url":"https://earthquake.usgs.gov/earthquakes/eventpage/tx2026ebsodk","detail":"https://earthquake.usgs.gov/fdsnws/event/1/query?eventid=tx2026ebsodk&format=geojson","felt":null,"cdi":null,"mmi":null,"alert":null,"status":"reviewed","tsunami":0,"sig":104,"net":"tx","code":"2026ebsodk","ids":",us7000s0qp,tx2026ebsodk,","sources":",us,tx,","types":",origin,phase-data,","nst":24,"dmin":0,"rms":0.1,"gap":80,"magType":"ml","type":"earthquake","title":"M 2.6 - 56 km S of Whites City, New Mexico"},"geometry":{"type":"Point","coordinates":[-104.412,31.665,6.2024]},"id":"tx2026ebsodk"},
{"type":"Feature","properties":{"mag":2.53,"place":"8 km ENE of Calumet, Oklahoma","time":1772180621729,"updated":1778882549040,"tz":null,"url":"https://earthquake.usgs.gov/earthquakes/eventpage/ok2026eaue","detail":"https://earthquake.usgs.gov/fdsnws/event/1/query?eventid=ok2026eaue&format=geojson","felt":0,"cdi":1,"mmi":null,"alert":null,"status":"reviewed","tsunami":0,"sig":98,"net":"ok","code":"2026eaue","ids":",us7000s0pf,ok2026eaue,","sources":",us,ok,","types":",dyfi,origin,phase-data,","nst":97,"dmin":0,"rms":0.18,"gap":39,"magType":"ml","type":"earthquake","title":"M 2.5 - 8 km ENE of Calumet, Oklahoma"},"geometry":{"type":"Point","coordinates":[-98.03016667,35.62566667,6.65]},"id":"ok2026eaue"},
{"type":"Feature","properties":{"mag":2.67,"place":"7 km SE of Ratliff City, Oklahoma","time":1772123400590,"updated":1778882547040,"tz":null,"url":"https://earthquake.usgs.gov/earthquakes/eventpage/ok2026dzou","detail":"https://earthquake.usgs.gov/fdsnws/event/1/query?eventid=ok2026dzou&format=geojson","felt":null,"cdi":null,"mmi":null,"alert":null,"status":"reviewed","tsunami":0,"sig":110,"net":"ok","code":"2026dzou","ids":",us7000s0gz,ok2026dzou,","sources":",us,ok,","types":",origin,phase-data,","nst":75,"dmin":0.05218975859,"rms":0.35,"gap":41,"magType":"ml","type":"earthquake","title":"M 2.7 - 7 km SE of Ratliff City, Oklahoma"},"geometry":{"type":"Point","coordinates":[-97.44333333,34.40966667,5.91]},"id":"ok2026dzou"},
{"type":"Feature","properties":{"mag":2.8,"place":"13 km S of Ackerly, Texas","time":1772106550691,"updated":1778882547040,"tz":null,"url":"https://earthquake.usgs.gov/earthquakes/eventpage/tx2026dzsdrr","detail":"https://earthquake.usgs.gov/fdsnws/event/1/query?eventid=tx2026dzsdrr&format=geojson","felt":null,"cdi":null,"mmi":null,"alert":null,"status":"reviewed","tsunami":0,"sig":121,"net":"tx","code":"2026dzsdrr","ids":",us7000s0fh,tx2026dzsdrr,","sources":",us,tx,","types":",origin,phase-data,","nst":51,"dmin":0,"rms":0.1,"gap":56,"magType":"ml","type":"earthquake","title":"M 2.8 - 13 km S of Ackerly, Texas"},"geometry":{"type":"Point","coordinates":[-101.721,32.403,8.3252]},"id":"tx2026dzsdrr"},
{"type":"Feature","properties":{"mag":2.6,"place":"49 km W of Mentone, Texas","time":1772038237582,"updated":1778606899040,"tz":null,"url":"https://earthquake.usgs.gov/earthquakes/eventpage/tx2026dygkys","detail":"https://earthquake.usgs.gov/fdsnws/event/1/query?eventid=tx2026dygkys&format=geojson","felt":null,"cdi":null,"mmi":null,"alert":null,"status":"reviewed","tsunami":0,"sig":104,"net":"tx","code":"2026dygkys","ids":",us7000s09f,tx2026dygkys,","sources":",us,tx,","types":",origin,phase-data,","nst":32,"dmin":0.1,"rms":0.2,"gap":43,"magType":"ml","type":"earthquake","title":"M 2.6 - 49 km W of Mentone, Texas"},"geometry":{"type":"Point","coordinates":[-104.125,31.7,6.7279]},"id":"tx2026dygkys"},
{"type":"Feature","properties":{"mag":2.6,"place":"49 km W of Mentone, Texas","time":1771986453652,"updated":1778606897040,"tz":null,"url":"https://earthquake.usgs.gov/earthquakes/eventpage/tx2026dxdvln","detail":"https://earthquake.usgs.gov/fdsnws/event/1/query?eventid=tx2026dxdvln&format=geojson","felt":null,"cdi":null,"mmi":null,"alert":null,"status":"reviewed","tsunami":0,"sig":104,"net":"tx","code":"2026dxdvln","ids":",us7000s04w,tx2026dxdvln,","sources":",us,tx,","types":",origin,phase-data,","nst":42,"dmin":0.1,"rms":0.1,"gap":43,"magType":"ml","type":"earthquake","title":"M 2.6 - 49 km W of Mentone, Texas"},"geometry":{"type":"Point","coordinates":[-104.126,31.699,6.2152]},"id":"tx2026dxdvln"},
{"type":"Feature","properties":{"mag":3.2,"place":"13 km N of Stanton, Texas","time":1771851818948,"updated":1778606891040,"tz":null,"url":"https://earthquake.usgs.gov/earthquakes/eventpage/tx2026duhlyk","detail":"https://earthquake.usgs.gov/fdsnws/event/1/query?eventid=tx2026duhlyk&format=geojson","felt":4,"cdi":2.7,"mmi":null,"alert":null,"status":"reviewed","tsunami":0,"sig":159,"net":"tx","code":"2026duhlyk","ids":",us6000sb19,tx2026duhlyk,","sources":",us,tx,","types":",dyfi,origin,phase-data,","nst":83,"dmin":0,"rms":0.1,"gap":19,"magType":"ml","type":"earthquake","title":"M 3.2 - 13 km N of Stanton, Texas"},"geometry":{"type":"Point","coordinates":[-101.77,32.249,6.958]},"id":"tx2026duhlyk"},
{"type":"Feature","properties":{"mag":2.7,"place":"56 km S of Whites City, New Mexico","time":1771845027921,"updated":1778606891040,"tz":null,"url":"https://earthquake.usgs.gov/earthquakes/eventpage/tx2026dudpwr","detail":"https://earthquake.usgs.gov/fdsnws/event/1/query?eventid=tx2026dudpwr&format=geojson","felt":null,"cdi":null,"mmi":null,"alert":null,"status":"reviewed","tsunami":0,"sig":112,"net":"tx","code":"2026dudpwr","ids":",us6000sb0w,tx2026dudpwr,","sources":",us,tx,","types":",origin,phase-data,","nst":59,"dmin":0,"rms":0.2,"gap":57,"magType":"ml","type":"earthquake","title":"M 2.7 - 56 km S of Whites City, New Mexico"},"geometry":{"type":"Point","coordinates":[-104.409,31.67,6.0999]},"id":"tx2026dudpwr"},
{"type":"Feature","properties":{"mag":2.96,"place":"6 km SE of Ratliff City, Oklahoma","time":1771822281370,"updated":1778606889040,"tz":null,"url":"https://earthquake.usgs.gov/earthquakes/eventpage/ok2026dtfh","detail":"https://earthquake.usgs.gov/fdsnws/event/1/query?eventid=ok2026dtfh&format=geojson","felt":4,"cdi":3.8,"mmi":null,"alert":null,"status":"reviewed","tsunami":0,"sig":136,"net":"ok","code":"2026dtfh","ids":",ok2026dtfh,us6000sayr,","sources":",ok,us,","types":",dyfi,origin,phase-data,","nst":97,"dmin":0,"rms":0.27,"gap":41,"magType":"ml","type":"earthquake","title":"M 3.0 - 6 km SE of Ratliff City, Oklahoma"},"geometry":{"type":"Point","coordinates":[-97.45033333,34.411,5.92]},"id":"ok2026dtfh"},
{"type":"Feature","properties":{"mag":2.6,"place":"56 km S of Whites City, New Mexico","time":1771812525543,"updated":1778606888040,"tz":null,"url":"https://earthquake.usgs.gov/earthquakes/eventpage/tx2026dtltpn","detail":"https://earthquake.usgs.gov/fdsnws/event/1/query?eventid=tx2026dtltpn&format=geojson","felt":null,"cdi":null,"mmi":null,"alert":null,"status":"reviewed","tsunami":0,"sig":104,"net":"tx","code":"2026dtltpn","ids":",us6000saxq,tx2026dtltpn,","sources":",us,tx,","types":",origin,phase-data,","nst":45,"dmin":0.1,"rms":0.2,"gap":66,"magType":"ml","type":"earthquake","title":"M 2.6 - 56 km S of Whites City, New Mexico"},"geometry":{"type":"Point","coordinates":[-104.359,31.664,6.1255]},"id":"tx2026dtltpn"},
{"type":"Feature","properties":{"mag":2.7,"place":"12 km WSW of Stanton, Texas","time":1771711845955,"updated":1778606886040,"tz":null,"url":"https://earthquake.usgs.gov/earthquakes/eventpage/tx2026dridqq","detail":"https://earthquake.usgs.gov/fdsnws/event/1/query?eventid=tx2026dridqq&format=geojson","felt":1,"cdi":2.7,"mmi":null,"alert":null,"status":"reviewed","tsunami":0,"sig":112,"net":"tx","code":"2026dridqq","ids":",tx2026dridqq,us6000sap8,","sources":",tx,us,","types":",dyfi,origin,phase-data,","nst":28,"dmin":0.1,"rms":0.1,"gap":63,"magType":"ml","type":"earthquake","title":"M 2.7 - 12 km WSW of Stanton, Texas"},"geometry":{"type":"Point","coordinates":[-101.916,32.105,8.667]},"id":"tx2026dridqq"},
{"type":"Feature","properties":{"mag":2.9,"place":"12 km WSW of Stanton, Texas","time":1771708527380,"updated":1778606886040,"tz":null,"url":"https://earthquake.usgs.gov/earthquakes/eventpage/tx2026drghqa","detail":"https://earthquake.usgs.gov/fdsnws/event/1/query?eventid=tx2026drghqa&format=geojson","felt":2,"cdi":3.1,"mmi":null,"alert":null,"status":"reviewed","tsunami":0,"sig":130,"net":"tx","code":"2026drghqa","ids":",us6000sap0,tx2026drghqa,","sources":",us,tx,","types":",dyfi,origin,phase-data,","nst":40,"dmin":0.1,"rms":0.1,"gap":54,"magType":"ml","type":"earthquake","title":"M 2.9 - 12 km WSW of Stanton, Texas"},"geometry":{"type":"Point","coordinates":[-101.916,32.105,8.6182]},"id":"tx2026drghqa"},
{"type":"Feature","properties":{"mag":2.56,"place":"8 km ENE of Calumet, Oklahoma","time":1771668106090,"updated":1778606885040,"tz":null,"url":"https://earthquake.usgs.gov/earthquakes/eventpage/ok2026dpyn","detail":"https://earthquake.usgs.gov/fdsnws/event/1/query?eventid=ok2026dpyn&format=geojson","felt":2,"cdi":2.7,"mmi":null,"alert":null,"status":"reviewed","tsunami":0,"sig":101,"net":"ok","code":"2026dpyn","ids":",us6000salu,ok2026dpyn,","sources":",us,ok,","types":",dyfi,origin,phase-data,","nst":91,"dmin":0,"rms":0.12,"gap":48,"magType":"ml","type":"earthquake","title":"M 2.6 - 8 km ENE of Calumet, Oklahoma"},"geometry":{"type":"Point","coordinates":[-98.033,35.62483333,6.28]},"id":"ok2026dpyn"},
{"type":"Feature","properties":{"mag":3,"place":"37 km SSW of Lamesa, Texas","time":1771636347079,"updated":1778606884040,"tz":null,"url":"https://earthquake.usgs.gov/earthquakes/eventpage/tx2026dpskyr","detail":"https://earthquake.usgs.gov/fdsnws/event/1/query?eventid=tx2026dpskyr&format=geojson","felt":null,"cdi":null,"mmi":null,"alert":null,"status":"reviewed","tsunami":0,"sig":138,"net":"tx","code":"2026dpskyr","ids":",us6000sajs,tx2026dpskyr,","sources":",us,tx,","types":",origin,phase-data,","nst":59,"dmin":0,"rms":0.1,"gap":71,"magType":"ml","type":"earthquake","title":"M 3.0 - 37 km SSW of Lamesa, Texas"},"geometry":{"type":"Point","coordinates":[-102.158,32.444,7.8369]},"id":"tx2026dpskyr"},
{"type":"Feature","properties":{"mag":2.64,"place":"8 km ENE of Calumet, Oklahoma","time":1771531044210,"updated":1778606882040,"tz":null,"url":"https://earthquake.usgs.gov/earthquakes/eventpage/ok2026dnbd","detail":"https://earthquake.usgs.gov/fdsnws/event/1/query?eventid=ok2026dnbd&format=geojson","felt":4,"cdi":4.1,"mmi":null,"alert":null,"status":"reviewed","tsunami":0,"sig":109,"net":"ok","code":"2026dnbd","ids":",ok2026dnbd,us6000sa9w,","sources":",ok,us,","types":",dyfi,origin,phase-data,","nst":80,"dmin":0,"rms":0.33,"gap":36,"magType":"ml","type":"earthquake","title":"M 2.6 - 8 km ENE of Calumet, Oklahoma"},"geometry":{"type":"Point","coordinates":[-98.031,35.62416667,5.59]},"id":"ok2026dnbd"},
{"type":"Feature","properties":{"mag":3.07,"place":"8 km ENE of Calumet, Oklahoma","time":1771505304949,"updated":1778606881040,"tz":null,"url":"https://earthquake.usgs.gov/earthquakes/eventpage/ok2026dmmz","detail":"https://earthquake.usgs.gov/fdsnws/event/1/query?eventid=ok2026dmmz&format=geojson","felt":12,"cdi":4.3,"mmi":4.676,"alert":null,"status":"reviewed","tsunami":0,"sig":150,"net":"ok","code":"2026dmmz","ids":",us6000sa61,ok2026dmmz,","sources":",us,ok,","types":",dyfi,origin,phase-data,shakemap,","nst":98,"dmin":0,"rms":0.12,"gap":39,"magType":"ml","type":"earthquake","title":"M 3.1 - 8 km ENE of Calumet, Oklahoma"},"geometry":{"type":"Point","coordinates":[-98.034,35.62183333,6.77]},"id":"ok2026dmmz"},
{"type":"Feature","properties":{"mag":3.1,"place":"3 km NNW of Denver City, Texas","time":1771495548386,"updated":1778606881040,"tz":null,"url":"https://earthquake.usgs.gov/earthquakes/eventpage/tx2026dmspfw","detail":"https://earthquake.usgs.gov/fdsnws/event/1/query?eventid=tx2026dmspfw&format=geojson","felt":10,"cdi":3.4,"mmi":null,"alert":null,"status":"reviewed","tsunami":0,"sig":151,"net":"tx","code":"2026dmspfw","ids":",us6000sa5l,tx2026dmspfw,","sources":",us,tx,","types":",dyfi,origin,phase-data,","nst":27,"dmin":0.2,"rms":0.3,"gap":64,"magType":"ml","type":"earthquake","title":"M 3.1 - 3 km NNW of Denver City, Texas"},"geometry":{"type":"Point","coordinates":[-102.837,32.991,3.1494]},"id":"tx2026dmspfw"},
{"type":"Feature","properties":{"mag":2.5,"place":"5 km NW of Odessa, Texas","time":1771314403669,"updated":1778090039040,"tz":null,"url":"https://earthquake.usgs.gov/earthquakes/eventpage/tx2026diwpoh","detail":"https://earthquake.usgs.gov/fdsnws/event/1/query?eventid=tx2026diwpoh&format=geojson","felt":24,"cdi":4.3,"mmi":null,"alert":null,"status":"reviewed","tsunami":0,"sig":106,"net":"tx","code":"2026diwpoh","ids":",tx2026diwpoh,us6000s9ql,","sources":",tx,us,","types":",dyfi,origin,phase-data,","nst":27,"dmin":0.1,"rms":0.1,"gap":78,"magType":"ml","type":"earthquake","title":"M 2.5 - 5 km NW of Odessa, Texas"},"geometry":{"type":"Point","coordinates":[-102.404,31.889,6.1768]},"id":"tx2026diwpoh"},
{"type":"Feature","properties":{"mag":2.5,"place":"49 km W of Mentone, Texas","time":1771309520393,"updated":1778090039040,"tz":null,"url":"https://earthquake.usgs.gov/earthquakes/eventpage/tx2026diturg","detail":"https://earthquake.usgs.gov/fdsnws/event/1/query?eventid=tx2026diturg&format=geojson","felt":null,"cdi":null,"mmi":null,"alert":null,"status":"reviewed","tsunami":0,"sig":96,"net":"tx","code":"2026diturg","ids":",us6000s9q0,tx2026diturg,","sources":",us,tx,","types":",origin,phase-data,","nst":39,"dmin":0,"rms":0.2,"gap":47,"magType":"ml","type":"earthquake","title":"M 2.5 - 49 km W of Mentone, Texas"},"geometry":{"type":"Point","coordinates":[-104.115,31.669,6.0999]},"id":"tx2026diturg"},
{"type":"Feature","properties":{"mag":2.7,"place":"49 km NW of Toyah, Texas","time":1771308901938,"updated":1778090039040,"tz":null,"url":"https://earthquake.usgs.gov/earthquakes/eventpage/tx2026ditonn","detail":"https://earthquake.usgs.gov/fdsnws/event/1/query?eventid=tx2026ditonn&format=geojson","felt":null,"cdi":null,"mmi":null,"alert":null,"status":"reviewed","tsunami":0,"sig":112,"net":"tx","code":"2026ditonn","ids":",us6000s9py,tx2026ditonn,","sources":",us,tx,","types":",origin,phase-data,","nst":34,"dmin":0,"rms":0.2,"gap":64,"magType":"ml","type":"earthquake","title":"M 2.7 - 49 km NW of Toyah, Texas"},"geometry":{"type":"Point","coordinates":[-104.122,31.664,6.7023]},"id":"tx2026ditonn"},
{"type":"Feature","properties":{"mag":3.6,"place":"49 km W of Mentone, Texas","time":1771308077150,"updated":1778090039040,"tz":null,"url":"https://earthquake.usgs.gov/earthquakes/eventpage/tx2026ditcsc","detail":"https://earthquake.usgs.gov/fdsnws/event/1/query?eventid=tx2026ditcsc&format=geojson","felt":2,"cdi":2.6,"mmi":4.192,"alert":null,"status":"reviewed","tsunami":0,"sig":200,"net":"tx","code":"2026ditcsc","ids":",tx2026ditcsc,us6000s9pr,","sources":",tx,us,","types":",dyfi,moment-tensor,origin,phase-data,shakemap,","nst":76,"dmin":0,"rms":0.2,"gap":47,"magType":"ml","type":"earthquake","title":"M 3.6 - 49 km W of Mentone, Texas"},"geometry":{"type":"Point","coordinates":[-104.115,31.667,6.2152]},"id":"tx2026ditcsc"},
{"type":"Feature","properties":{"mag":3.1,"place":"5 km E of Calumet, Oklahoma","time":1771281266978,"updated":1778090038040,"tz":null,"url":"https://earthquake.usgs.gov/earthquakes/eventpage/us6000s9lx","detail":"https://earthquake.usgs.gov/fdsnws/event/1/query?eventid=us6000s9lx&format=geojson","felt":3,"cdi":3.1,"mmi":null,"alert":null,"status":"reviewed","tsunami":0,"sig":149,"net":"us","code":"6000s9lx","ids":",us6000s9lx,","sources":",us,","types":",dyfi,origin,phase-data,","nst":17,"dmin":0.172,"rms":0.42,"gap":94,"magType":"mb_lg","type":"earthquake","title":"M 3.1 - 5 km E of Calumet, Oklahoma"},"geometry":{"type":"Point","coordinates":[-98.0584,35.5951,10.332]},"id":"us6000s9lx"},
{"type":"Feature","properties":{"mag":3.1,"place":"60 km S of Whites City, New Mexico","time":1771227043965,"updated":1778090036040,"tz":null,"url":"https://earthquake.usgs.gov/earthquakes/eventpage/tx2026dhaili","detail":"https://earthquake.usgs.gov/fdsnws/event/1/query?eventid=tx2026dhaili&format=geojson","felt":null,"cdi":null,"mmi":null,"alert":null,"status":"reviewed","tsunami":0,"sig":148,"net":"tx","code":"2026dhaili","ids":",us6000s9gw,tx2026dhaili,","sources":",us,tx,","types":",origin,phase-data,","nst":38,"dmin":0.1,"rms":0.2,"gap":69,"magType":"ml","type":"earthquake","title":"M 3.1 - 60 km S of Whites City, New Mexico"},"geometry":{"type":"Point","coordinates":[-104.365,31.629,6.0999]},"id":"tx2026dhaili"},
{"type":"Feature","properties":{"mag":3.5,"place":"60 km S of Whites City, New Mexico","time":1771225521540,"updated":1778090036040,"tz":null,"url":"https://earthquake.usgs.gov/earthquakes/eventpage/tx2026dgzmvn","detail":"https://earthquake.usgs.gov/fdsnws/event/1/query?eventid=tx2026dgzmvn&format=geojson","felt":null,"cdi":null,"mmi":4.31,"alert":null,"status":"reviewed","tsunami":0,"sig":188,"net":"tx","code":"2026dgzmvn","ids":",us6000s9gr,tx2026dgzmvn,","sources":",us,tx,","types":",moment-tensor,origin,phase-data,shakemap,","nst":45,"dmin":0.1,"rms":0.2,"gap":69,"magType":"ml","type":"earthquake","title":"M 3.5 - 60 km S of Whites City, New Mexico"},"geometry":{"type":"Point","coordinates":[-104.364,31.629,6.0999]},"id":"tx2026dgzmvn"},
{"type":"Feature","properties":{"mag":2.6,"place":"57 km S of Whites City, New Mexico","time":1771217913466,"updated":1778090036040,"tz":null,"url":"https://earthquake.usgs.gov/earthquakes/eventpage/tx2026dgvemo","detail":"https://earthquake.usgs.gov/fdsnws/event/1/query?eventid=tx2026dgvemo&format=geojson","felt":null,"cdi":null,"mmi":null,"alert":null,"status":"reviewed","tsunami":0,"sig":104,"net":"tx","code":"2026dgvemo","ids":",us6000s9gg,tx2026dgvemo,","sources":",us,tx,","types":",origin,phase-data,","nst":30,"dmin":0.1,"rms":0.1,"gap":68,"magType":"ml","type":"earthquake","title":"M 2.6 - 57 km S of Whites City, New Mexico"},"geometry":{"type":"Point","coordinates":[-104.327,31.659,6.8304]},"id":"tx2026dgvemo"},
{"type":"Feature","properties":{"mag":3.6,"place":"7 km ENE of Calumet, Oklahoma","time":1771215215420,"updated":1778090036040,"tz":null,"url":"https://earthquake.usgs.gov/earthquakes/eventpage/ok2026dgjn","detail":"https://earthquake.usgs.gov/fdsnws/event/1/query?eventid=ok2026dgjn&format=geojson","felt":18,"cdi":4.3,"mmi":4.208,"alert":null,"status":"reviewed","tsunami":0,"sig":207,"net":"ok","code":"2026dgjn","ids":",ok2026dgjn,us6000s9ga,","sources":",ok,us,","types":",dyfi,moment-tensor,origin,phase-data,shakemap,","nst":97,"dmin":0,"rms":0.11,"gap":49,"magType":"mwr","type":"earthquake","title":"M 3.6 - 7 km ENE of Calumet, Oklahoma"},"geometry":{"type":"Point","coordinates":[-98.03916667,35.6175,6.31]},"id":"ok2026dgjn"},
{"type":"Feature","properties":{"mag":3.12,"place":"2 km WNW of Springer, Oklahoma","time":1771152608189,"updated":1778090035040,"tz":null,"url":"https://earthquake.usgs.gov/earthquakes/eventpage/ok2026dfbc","detail":"https://earthquake.usgs.gov/fdsnws/event/1/query?eventid=ok2026dfbc&format=geojson","felt":11,"cdi":3.6,"mmi":4.583,"alert":null,"status":"reviewed","tsunami":0,"sig":154,"net":"ok","code":"2026dfbc","ids":",us6000s9dl,ok2026dfbc,","sources":",us,ok,","types":",dyfi,origin,phase-data,shakemap,","nst":80,"dmin":0,"rms":0.44,"gap":52,"magType":"ml","type":"earthquake","title":"M 3.1 - 2 km WNW of Springer, Oklahoma"},"geometry":{"type":"Point","coordinates":[-97.1655,34.31833333,19.62]},"id":"ok2026dfbc"},
{"type":"Feature","properties":{"mag":2.55,"place":"4 km SW of Cole, Oklahoma","time":1771122478649,"updated":1778090034040,"tz":null,"url":"https://earthquake.usgs.gov/earthquakes/eventpage/ok2026dekn","detail":"https://earthquake.usgs.gov/fdsnws/event/1/query?eventid=ok2026dekn&format=geojson","felt":35,"cdi":3.4,"mmi":null,"alert":null,"status":"reviewed","tsunami":0,"sig":112,"net":"ok","code":"2026dekn","ids":",ok2026dekn,us6000s9a7,","sources":",ok,us,","types":",dyfi,origin,phase-data,","nst":88,"dmin":0,"rms":0.19,"gap":56,"magType":"ml","type":"earthquake","title":"M 2.6 - 4 km SW of Cole, Oklahoma"},"geometry":{"type":"Point","coordinates":[-97.602,35.07033333,6.23]},"id":"ok2026dekn"},
{"type":"Feature","properties":{"mag":2.6,"place":"23 km SW of Snyder, Texas","time":1771030293042,"updated":1778090031040,"tz":null,"url":"https://earthquake.usgs.gov/earthquakes/eventpage/tx2026dcvpjp","detail":"https://earthquake.usgs.gov/fdsnws/event/1/query?eventid=tx2026dcvpjp&format=geojson","felt":2,"cdi":2.2,"mmi":null,"alert":null,"status":"reviewed","tsunami":0,"sig":104,"net":"tx","code":"2026dcvpjp","ids":",us6000s948,tx2026dcvpjp,","sources":",us,tx,","types":",dyfi,origin,phase-data,","nst":39,"dmin":0.1,"rms":0.1,"gap":56,"magType":"ml","type":"earthquake","title":"M 2.6 - 23 km SW of Snyder, Texas"},"geometry":{"type":"Point","coordinates":[-101.086,32.564,6.8115]},"id":"tx2026dcvpjp"},
{"type":"Feature","properties":{"mag":2.6,"place":"24 km NNE of Mentone, Texas","time":1770947991044,"updated":1778090029040,"tz":null,"url":"https://earthquake.usgs.gov/earthquakes/eventpage/tx2026dbcfab","detail":"https://earthquake.usgs.gov/fdsnws/event/1/query?eventid=tx2026dbcfab&format=geojson","felt":null,"cdi":null,"mmi":null,"alert":null,"status":"reviewed","tsunami":0,"sig":104,"net":"tx","code":"2026dbcfab","ids":",us6000s8n6,tx2026dbcfab,","sources":",us,tx,","types":",origin,phase-data,","nst":35,"dmin":0,"rms":0.2,"gap":38,"magType":"ml","type":"earthquake","title":"M 2.6 - 24 km NNE of Mentone, Texas"},"geometry":{"type":"Point","coordinates":[-103.464,31.894,6.4587]},"id":"tx2026dbcfab"},
{"type":"Feature","properties":{"mag":2.66,"place":"8 km ENE of Calumet, Oklahoma","time":1770847408800,"updated":1777646151040,"tz":null,"url":"https://earthquake.usgs.gov/earthquakes/eventpage/ok2026cyph","detail":"https://earthquake.usgs.gov/fdsnws/event/1/query?eventid=ok2026cyph&format=geojson","felt":2,"cdi":3.1,"mmi":null,"alert":null,"status":"reviewed","tsunami":0,"sig":109,"net":"ok","code":"2026cyph","ids":",ok2026cyph,us6000s7yu,","sources":",ok,us,","types":",dyfi,origin,phase-data,","nst":95,"dmin":0,"rms":0.17,"gap":40,"magType":"ml","type":"earthquake","title":"M 2.7 - 8 km ENE of Calumet, Oklahoma"},"geometry":{"type":"Point","coordinates":[-98.0335,35.6215,6.02]},"id":"ok2026cyph"},
{"type":"Feature","properties":{"mag":2.5,"place":"8 km NE of Amarillo, Texas","time":1770764754813,"updated":1786039153380,"tz":null,"url":"https://earthquake.usgs.gov/earthquakes/eventpage/tx2026cxezmp","detail":"https://earthquake.usgs.gov/fdsnws/event/1/query?eventid=tx2026cxezmp&format=geojson","felt":null,"cdi":null,"mmi":null,"alert":null,"status":"reviewed","tsunami":0,"sig":96,"net":"tx","code":"2026cxezmp","ids":",tx2026cxezmp,","sources":",tx,","types":",origin,phase-data,","nst":10,"dmin":0.2,"rms":0.2,"gap":95,"magType":"ml","type":"earthquake","title":"M 2.5 - 8 km NE of Amarillo, Texas"},"geometry":{"type":"Point","coordinates":[-101.756,35.271,7.9346]},"id":"tx2026cxezmp"},
{"type":"Feature","properties":{"mag":2.8,"place":"13 km W of Stanton, Texas","time":1770759381015,"updated":1777646150040,"tz":null,"url":"https://earthquake.usgs.gov/earthquakes/eventpage/tx2026cxcabv","detail":"https://earthquake.usgs.gov/fdsnws/event/1/query?eventid=tx2026cxcabv&format=geojson","felt":3,"cdi":3.8,"mmi":null,"alert":null,"status":"reviewed","tsunami":0,"sig":122,"net":"tx","code":"2026cxcabv","ids":",tx2026cxcabv,us6000s7pr,","sources":",tx,us,","types":",dyfi,origin,phase-data,","nst":61,"dmin":0.1,"rms":0.1,"gap":35,"magType":"ml","type":"earthquake","title":"M 2.8 - 13 km W of Stanton, Texas"},"geometry":{"type":"Point","coordinates":[-101.928,32.107,9.2041]},"id":"tx2026cxcabv"},
{"type":"Feature","properties":{"mag":2.7,"place":"32 km NW of Toyah, Texas","time":1770733967505,"updated":1777646149040,"tz":null,"url":"https://earthquake.usgs.gov/earthquakes/eventpage/tx2026cwnzia","detail":"https://earthquake.usgs.gov/fdsnws/event/1/query?eventid=tx2026cwnzia&format=geojson","felt":null,"cdi":null,"mmi":null,"alert":null,"status":"reviewed","tsunami":0,"sig":112,"net":"tx","code":"2026cwnzia","ids":",us6000s7mp,tx2026cwnzia,","sources":",us,tx,","types":",origin,phase-data,","nst":40,"dmin":0,"rms":0.2,"gap":58,"magType":"ml","type":"earthquake","title":"M 2.7 - 32 km NW of Toyah, Texas"},"geometry":{"type":"Point","coordinates":[-104.022,31.534,7.1381]},"id":"tx2026cwnzia"},
{"type":"Feature","properties":{"mag":2.67,"place":"7 km ENE of Calumet, Oklahoma","time":1770626348800,"updated":1777646148040,"tz":null,"url":"https://earthquake.usgs.gov/earthquakes/eventpage/ok2026ctxt","detail":"https://earthquake.usgs.gov/fdsnws/event/1/query?eventid=ok2026ctxt&format=geojson","felt":3,"cdi":4.1,"mmi":null,"alert":null,"status":"reviewed","tsunami":0,"sig":111,"net":"ok","code":"2026ctxt","ids":",ok2026ctxt,us6000s7eu,","sources":",ok,us,","types":",dyfi,origin,phase-data,","nst":100,"dmin":0,"rms":0.12,"gap":40,"magType":"ml","type":"earthquake","title":"M 2.7 - 7 km ENE of Calumet, Oklahoma"},"geometry":{"type":"Point","coordinates":[-98.03566667,35.61966667,6.16]},"id":"ok2026ctxt"},
{"type":"Feature","properties":{"mag":2.8,"place":"12 km WSW of Stanton, Texas","time":1770618813273,"updated":1777646147040,"tz":null,"url":"https://earthquake.usgs.gov/earthquakes/eventpage/tx2026cucjlr","detail":"https://earthquake.usgs.gov/fdsnws/event/1/query?eventid=tx2026cucjlr&format=geojson","felt":3,"cdi":4.1,"mmi":null,"alert":null,"status":"reviewed","tsunami":0,"sig":122,"net":"tx","code":"2026cucjlr","ids":",tx2026cucjlr,us6000s7eb,","sources":",tx,us,","types":",dyfi,origin,phase-data,","nst":35,"dmin":0.1,"rms":0.1,"gap":54,"magType":"ml","type":"earthquake","title":"M 2.8 - 12 km WSW of Stanton, Texas"},"geometry":{"type":"Point","coordinates":[-101.913,32.107,7.1045]},"id":"tx2026cucjlr"},
{"type":"Feature","properties":{"mag":3.2,"place":"58 km S of Whites City, New Mexico","time":1770437010593,"updated":1777646144040,"tz":null,"url":"https://earthquake.usgs.gov/earthquakes/eventpage/tx2026cqfyjz","detail":"https://earthquake.usgs.gov/fdsnws/event/1/query?eventid=tx2026cqfyjz&format=geojson","felt":null,"cdi":null,"mmi":null,"alert":null,"status":"reviewed","tsunami":0,"sig":158,"net":"tx","code":"2026cqfyjz","ids":",us6000s736,tx2026cqfyjz,","sources":",us,tx,","types":",origin,phase-data,","nst":44,"dmin":0,"rms":0.1,"gap":66,"magType":"ml","type":"earthquake","title":"M 3.2 - 58 km S of Whites City, New Mexico"},"geometry":{"type":"Point","coordinates":[-104.257,31.66,6.2665]},"id":"tx2026cqfyjz"},
{"type":"Feature","properties":{"mag":2.7,"place":"26 km NW of Toyah, Texas","time":1770373660354,"updated":1777646143040,"tz":null,"url":"https://earthquake.usgs.gov/earthquakes/eventpage/tx2026cowyou","detail":"https://earthquake.usgs.gov/fdsnws/event/1/query?eventid=tx2026cowyou&format=geojson","felt":null,"cdi":null,"mmi":null,"alert":null,"status":"reviewed","tsunami":0,"sig":112,"net":"tx","code":"2026cowyou","ids":",us6000s6wc,tx2026cowyou,","sources":",us,tx,","types":",origin,phase-data,","nst":37,"dmin":0,"rms":0.1,"gap":71,"magType":"ml","type":"earthquake","title":"M 2.7 - 26 km NW of Toyah, Texas"},"geometry":{"type":"Point","coordinates":[-103.98,31.496,6.1896]},"id":"tx2026cowyou"},
{"type":"Feature","properties":{"mag":3.7,"place":"19 km NNW of Whites City, New Mexico","time":1770314715360,"updated":1777646142040,"tz":null,"url":"https://earthquake.usgs.gov/earthquakes/eventpage/us6000s6n4","detail":"https://earthquake.usgs.gov/fdsnws/event/1/query?eventid=us6000s6n4&format=geojson","felt":27,"cdi":3.4,"mmi":4.241,"alert":null,"status":"reviewed","tsunami":0,"sig":220,"net":"us","code":"6000s6n4","ids":",us6000s6n4,","sources":",us,","types":",dyfi,moment-tensor,origin,phase-data,shakemap,","nst":36,"dmin":0.49,"rms":0.4,"gap":72,"magType":"mwr","type":"earthquake","title":"M 3.7 - 19 km NNW of Whites City, New Mexico"},"geometry":{"type":"Point","coordinates":[-104.4501,32.3409,8.802]},"id":"us6000s6n4"},
{"type":"Feature","properties":{"mag":2.5,"place":"4 km NW of Westbrook, Texas","time":1770271918902,"updated":1777646142040,"tz":null,"url":"https://earthquake.usgs.gov/earthquakes/eventpage/tx2026cmstjd","detail":"https://earthquake.usgs.gov/fdsnws/event/1/query?eventid=tx2026cmstjd&format=geojson","felt":null,"cdi":null,"mmi":null,"alert":null,"status":"reviewed","tsunami":0,"sig":96,"net":"tx","code":"2026cmstjd","ids":",us6000s6k1,tx2026cmstjd,","sources":",us,tx,","types":",origin,phase-data,","nst":26,"dmin":0.2,"rms":0.1,"gap":57,"magType":"ml","type":"earthquake","title":"M 2.5 - 4 km NW of Westbrook, Texas"},"geometry":{"type":"Point","coordinates":[-101.046,32.39,5.6152]},"id":"tx2026cmstjd"},
{"type":"Feature","properties":{"mag":2.9,"place":"33 km WSW of Mentone, Texas","time":1770257460868,"updated":1777646142040,"tz":null,"url":"https://earthquake.usgs.gov/earthquakes/eventpage/tx2026cmktrw","detail":"https://earthquake.usgs.gov/fdsnws/event/1/query?eventid=tx2026cmktrw&format=geojson","felt":null,"cdi":null,"mmi":null,"alert":null,"status":"reviewed","tsunami":0,"sig":129,"net":"tx","code":"2026cmktrw","ids":",tx2026cmktrw,us6000s6jb,","sources":",tx,us,","types":",origin,phase-data,","nst":23,"dmin":0,"rms":0.1,"gap":62,"magType":"ml","type":"earthquake","title":"M 2.9 - 33 km WSW of Mentone, Texas"},"geometry":{"type":"Point","coordinates":[-103.938,31.608,7.7533]},"id":"tx2026cmktrw"},
{"type":"Feature","properties":{"mag":3.1,"place":"56 km S of Whites City, New Mexico","time":1770201962742,"updated":1776977002040,"tz":null,"url":"https://earthquake.usgs.gov/earthquakes/eventpage/tx2026clgcjp","detail":"https://earthquake.usgs.gov/fdsnws/event/1/query?eventid=tx2026clgcjp&format=geojson","felt":null,"cdi":null,"mmi":null,"alert":null,"status":"reviewed","tsunami":0,"sig":148,"net":"tx","code":"2026clgcjp","ids":",us6000s6d0,tx2026clgcjp,","sources":",us,tx,","types":",origin,phase-data,","nst":46,"dmin":0.1,"rms":0.2,"gap":69,"magType":"ml","type":"earthquake","title":"M 3.1 - 56 km S of Whites City, New Mexico"},"geometry":{"type":"Point","coordinates":[-104.366,31.667,6.7664]},"id":"tx2026clgcjp"},
{"type":"Feature","properties":{"mag":2.8,"place":"56 km S of Whites City, New Mexico","time":1770201827662,"updated":1776977002040,"tz":null,"url":"https://earthquake.usgs.gov/earthquakes/eventpage/tx2026clgaro","detail":"https://earthquake.usgs.gov/fdsnws/event/1/query?eventid=tx2026clgaro&format=geojson","felt":null,"cdi":null,"mmi":null,"alert":null,"status":"reviewed","tsunami":0,"sig":121,"net":"tx","code":"2026clgaro","ids":",us6000s6cz,tx2026clgaro,","sources":",us,tx,","types":",origin,phase-data,","nst":24,"dmin":0.1,"rms":0.1,"gap":69,"magType":"ml","type":"earthquake","title":"M 2.8 - 56 km S of Whites City, New Mexico"},"geometry":{"type":"Point","coordinates":[-104.369,31.665,7.0227]},"id":"tx2026clgaro"},
{"type":"Feature","properties":{"mag":3.1,"place":"14 km NW of Whites City, New Mexico","time":1770044413521,"updated":1776977000040,"tz":null,"url":"https://earthquake.usgs.gov/earthquakes/eventpage/us6000s5yc","detail":"https://earthquake.usgs.gov/fdsnws/event/1/query?eventid=us6000s5yc&format=geojson","felt":2,"cdi":2,"mmi":null,"alert":null,"status":"reviewed","tsunami":0,"sig":148,"net":"us","code":"6000s5yc","ids":",us6000s5yc,","sources":",us,","types":",dyfi,origin,phase-data,","nst":31,"dmin":0.506,"rms":0.31,"gap":87,"magType":"ml","type":"earthquake","title":"M 3.1 - 14 km NW of Whites City, New Mexico"},"geometry":{"type":"Point","coordinates":[-104.4764,32.2763,5.343]},"id":"us6000s5yc"},
{"type":"Feature","properties":{"mag":2.5,"place":"25 km W of Garden City, Texas","time":1769985710740,"updated":1776976999040,"tz":null,"url":"https://earthquake.usgs.gov/earthquakes/eventpage/tx2026cgqqvc","detail":"https://earthquake.usgs.gov/fdsnws/event/1/query?eventid=tx2026cgqqvc&format=geojson","felt":null,"cdi":null,"mmi":null,"alert":null,"status":"reviewed","tsunami":0,"sig":96,"net":"tx","code":"2026cgqqvc","ids":",us6000s5w4,tx2026cgqqvc,","sources":",us,tx,","types":",origin,phase-data,","nst":36,"dmin":0.1,"rms":0.1,"gap":61,"magType":"ml","type":"earthquake","title":"M 2.5 - 25 km W of Garden City, Texas"},"geometry":{"type":"Point","coordinates":[-101.746,31.896,8.3252]},"id":"tx2026cgqqvc"}],"bbox":[-104.4764,31.496,3.1494,-97.1655,35.62566667,19.62]}