{"type":"FeatureCollection","metadata":{"generated":1787651281000,"url":"https://earthquake.usgs.gov/fdsnws/event/1/query?format=geojson&starttime=2026-01-01&endtime=2026-02-01&minmagnitude=2.5&minlatitude=31.0&maxlatitude=37.0&minlongitude=-104.5&maxlongitude=-94.4","title":"USGS Earthquakes","status":200,"api":"2.7.0","count":34},"features":[{"type":"Feature","properties":{"mag":2.8,"place":"20 km NNW of Midland, Texas","time":1769895616633,"updated":1776976998040,"tz":null,"url":"https://earthquake.usgs.gov/earthquakes/eventpage/tx2026cesuhf","detail":"https://earthquake.usgs.gov/fdsnws/event/1/query?eventid=tx2026cesuhf&format=geojson","felt":2,"cdi":3.8,"mmi":null,"alert":null,"status":"reviewed","tsunami":0,"sig":121,"net":"tx","code":"2026cesuhf","ids":",tx2026cesuhf,us6000s5sg,","sources":",tx,us,","types":",dyfi,origin,phase-data,","nst":55,"dmin":0,"rms":0.1,"gap":74,"magType":"ml","type":"earthquake","title":"M 2.8 - 20 km NNW of Midland, Texas"},"geometry":{"type":"Point","coordinates":[-102.149,32.171,8.8623]},"id":"tx2026cesuhf"},
{"type":"Feature","properties":{"mag":2.5,"place":"56 km S of Whites City, New Mexico","time":1769887408544,"updated":1776976998040,"tz":null,"url":"https://earthquake.usgs.gov/earthquakes/eventpage/tx2026ceoiyz","detail":"https://earthquake.usgs.gov/fdsnws/event/1/query?eventid=tx2026ceoiyz&format=geojson","felt":null,"cdi":null,"mmi":null,"alert":null,"status":"reviewed","tsunami":0,"sig":96,"net":"tx","code":"2026ceoiyz","ids":",us6000s5rs,tx2026ceoiyz,","sources":",us,tx,","types":",origin,phase-data,","nst":39,"dmin":0.1,"rms":0.1,"gap":69,"magType":"ml","type":"earthquake","title":"M 2.5 - 56 km S of Whites City, New Mexico"},"geometry":{"type":"Point","coordinates":[-104.36,31.669,6.0999]},"id":"tx2026ceoiyz"},
{"type":"Feature","properties":{"mag":2.76,"place":"2 km NE of Dibble, Oklahoma","time":1769886515380,"updated":1776976998040,"tz":null,"url":"https://earthquake.usgs.gov/earthquakes/eventpage/ok2026cegz","detail":"https://earthquake.usgs.gov/fdsnws/event/1/query?eventid=ok2026cegz&format=geojson","felt":11,"cdi":3.9,"mmi":null,"alert":null,"status":"reviewed","tsunami":0,"sig":121,"net":"ok","code":"2026cegz","ids":",us6000s5rq,ok2026cegz,","sources":",us,ok,","types":",dyfi,origin,phase-data,","nst":96,"dmin":0,"rms":0.2,"gap":38,"magType":"ml","type":"earthquake","title":"M 2.8 - 2 km NE of Dibble, Oklahoma"},"geometry":{"type":"Point","coordinates":[-97.61166667,35.055,6.17]},"id":"ok2026cegz"},
{"type":"Feature","properties":{"mag":2.6,"place":"10 km WSW of Stanton, Texas","time":1769822878100,"updated":1776976997040,"tz":null,"url":"https://earthquake.usgs.gov/earthquakes/eventpage/tx2026cdesfe","detail":"https://earthquake.usgs.gov/fdsnws/event/1/query?eventid=tx2026cdesfe&format=geojson","felt":null,"cdi":null,"mmi":null,"alert":null,"status":"reviewed","tsunami":0,"sig":104,"net":"tx","code":"2026cdesfe","ids":",us6000s5ny,tx2026cdesfe,","sources":",us,tx,","types":",origin,phase-data,","nst":43,"dmin":0.1,"rms":0.1,"gap":58,"magType":"ml","type":"earthquake","title":"M 2.6 - 10 km WSW of Stanton, Texas"},"geometry":{"type":"Point","coordinates":[-101.898,32.108,9.0088]},"id":"tx2026cdesfe"},
{"type":"Feature","properties":{"mag":2.6,"place":"12 km WSW of Stanton, Texas","time":1769757937783,"updated":1776976996040,"tz":null,"url":"https://earthquake.usgs.gov/earthquakes/eventpage/tx2026cbuurq","detail":"https://earthquake.usgs.gov/fdsnws/event/1/query?eventid=tx2026cbuurq&format=geojson","felt":1,"cdi":2,"mmi":null,"alert":null,"status":"reviewed","tsunami":0,"sig":104,"net":"tx","code":"2026cbuurq","ids":",us6000s5ex,tx2026cbuurq,","sources":",us,tx,","types":",dyfi,origin,phase-data,","nst":62,"dmin":0.1,"rms":0.1,"gap":52,"magType":"ml","type":"earthquake","title":"M 2.6 - 12 km WSW of Stanton, Texas"},"geometry":{"type":"Point","coordinates":[-101.922,32.105,8.9111]},"id":"tx2026cbuurq"},
{"type":"Feature","properties":{"mag":2.5,"place":"35 km NW of Toyah, Texas","time":1769711539238,"updated":1776976995040,"tz":null,"url":"https://earthquake.usgs.gov/earthquakes/eventpage/tx2026cavfcd","detail":"https://earthquake.usgs.gov/fdsnws/event/1/query?eventid=tx2026cavfcd&format=geojson","felt":null,"cdi":null,"mmi":null,"alert":null,"status":"reviewed","tsunami":0,"sig":96,"net":"tx","code":"2026cavfcd","ids":",us6000s5aw,tx2026cavfcd,","sources":",us,tx,","types":",origin,phase-data,","nst":37,"dmin":0,"rms":0.1,"gap":51,"magType":"ml","type":"earthquake","title":"M 2.5 - 35 km NW of Toyah, Texas"},"geometry":{"type":"Point","coordinates":[-104.023,31.567,7.9584]},"id":"tx2026cavfcd"},
{"type":"Feature","properties":{"mag":2.5,"place":"13 km N of Stanton, Texas","time":1769655329524,"updated":1776976995040,"tz":null,"url":"https://earthquake.usgs.gov/earthquakes/eventpage/tx2026bzqdxc","detail":"https://earthquake.usgs.gov/fdsnws/event/1/query?eventid=tx2026bzqdxc&format=geojson","felt":null,"cdi":null,"mmi":null,"alert":null,"status":"reviewed","tsunami":0,"sig":96,"net":"tx","code":"2026bzqdxc","ids":",us6000s54v,tx2026bzqdxc,","sources":",us,tx,","types":",origin,phase-data,","nst":61,"dmin":0,"rms":0.1,"gap":25,"magType":"ml","type":"earthquake","title":"M 2.5 - 13 km N of Stanton, Texas"},"geometry":{"type":"Point","coordinates":[-101.772,32.249,7.8369]},"id":"tx2026bzqdxc"},
{"type":"Feature","properties":{"mag":3,"place":"38 km NNW of Toyah, Texas","time":1769589836267,"updated":1776788873040,"tz":null,"url":"https://earthquake.usgs.gov/earthquakes/eventpage/tx2026byfyru","detail":"https://earthquake.usgs.gov/fdsnws/event/1/query?eventid=tx2026byfyru&format=geojson","felt":1,"cdi":2.6,"mmi":null,"alert":null,"status":"reviewed","tsunami":0,"sig":139,"net":"tx","code":"2026byfyru","ids":",us6000s4yp,tx2026byfyru,","sources":",us,tx,","types":",dyfi,origin,phase-data,","nst":40,"dmin":0,"rms":0.1,"gap":54,"magType":"ml","type":"earthquake","title":"M 3.0 - 38 km NNW of Toyah, Texas"},"geometry":{"type":"Point","coordinates":[-103.999,31.617,8.9133]},"id":"tx2026byfyru"},
{"type":"Feature","properties":{"mag":2.9,"place":"11 km S of Forsan, Texas","time":1769535547481,"updated":1776788871040,"tz":null,"url":"https://earthquake.usgs.gov/earthquakes/eventpage/tx2026bxbzoi","detail":"https://earthquake.usgs.gov/fdsnws/event/1/query?eventid=tx2026bxbzoi&format=geojson","felt":null,"cdi":null,"mmi":null,"alert":null,"status":"reviewed","tsunami":0,"sig":129,"net":"tx","code":"2026bxbzoi","ids":",us6000s4tg,tx2026bxbzoi,","sources":",us,tx,","types":",origin,phase-data,","nst":21,"dmin":0.2,"rms":0.1,"gap":69,"magType":"ml","type":"earthquake","title":"M 2.9 - 11 km S of Forsan, Texas"},"geometry":{"type":"Point","coordinates":[-101.354,32.006,9.79]},"id":"tx2026bxbzoi"},
{"type":"Feature","properties":{"mag":4.3,"place":"23 km SW of Snyder, Texas","time":1769422957516,"updated":1787567560673,"tz":null,"url":"https://earthquake.usgs.gov/earthquakes/eventpage/tx2026burunl","detail":"https://earthquake.usgs.gov/fdsnws/event/1/query?eventid=tx2026burunl&format=geojson","felt":45,"cdi":5.2,"mmi":4.689,"alert":"green","status":"reviewed","tsunami":0,"sig":308,"net":"tx","code":"2026burunl","ids":",tx2026burunl,us7000rs3f,","sources":",tx,us,","types":",dyfi,event-sequence,losspager,moment-tensor,oaf,origin,phase-data,shakemap,","nst":40,"dmin":0.1,"rms":0.2,"gap":55,"magType":"ml","type":"earthquake","title":"M 4.3 - 23 km SW of Snyder, Texas"},"geometry":{"type":"Point","coordinates":[-101.092,32.563,6.5186]},"id":"tx2026burunl"},
{"type":"Feature","properties":{"mag":3.4,"place":"54 km W of Mentone, Texas","time":1769340308453,"updated":1776788883040,"tz":null,"url":"https://earthquake.usgs.gov/earthquakes/eventpage/tx2026bsydlk","detail":"https://earthquake.usgs.gov/fdsnws/event/1/query?eventid=tx2026bsydlk&format=geojson","felt":null,"cdi":null,"mmi":4.062,"alert":null,"status":"reviewed","tsunami":0,"sig":178,"net":"tx","code":"2026bsydlk","ids":",us7000rry2,tx2026bsydlk,","sources":",us,tx,","types":",moment-tensor,origin,phase-data,shakemap,","nst":27,"dmin":0.1,"rms":0.1,"gap":77,"magType":"ml","type":"earthquake","title":"M 3.4 - 54 km W of Mentone, Texas"},"geometry":{"type":"Point","coordinates":[-104.178,31.705,5.9973]},"id":"tx2026bsydlk"},
{"type":"Feature","properties":{"mag":2.8,"place":"22 km NNW of Midland, Texas","time":1769076284207,"updated":1776788880040,"tz":null,"url":"https://earthquake.usgs.gov/earthquakes/eventpage/tx2026bnihph","detail":"https://earthquake.usgs.gov/fdsnws/event/1/query?eventid=tx2026bnihph&format=geojson","felt":4,"cdi":3,"mmi":null,"alert":null,"status":"reviewed","tsunami":0,"sig":122,"net":"tx","code":"2026bnihph","ids":",tx2026bnihph,us7000rras,","sources":",tx,us,","types":",dyfi,origin,phase-data,","nst":50,"dmin":0.1,"rms":0.1,"gap":69,"magType":"ml","type":"earthquake","title":"M 2.8 - 22 km NNW of Midland, Texas"},"geometry":{"type":"Point","coordinates":[-102.13,32.196,8.4717]},"id":"tx2026bnihph"},
{"type":"Feature","properties":{"mag":2.5,"place":"10 km SSE of Coyanosa, Texas","time":1769067392127,"updated":1776788880040,"tz":null,"url":"https://earthquake.usgs.gov/earthquakes/eventpage/tx2026bndjxf","detail":"https://earthquake.usgs.gov/fdsnws/event/1/query?eventid=tx2026bndjxf&format=geojson","felt":1,"cdi":1,"mmi":null,"alert":null,"status":"reviewed","tsunami":0,"sig":96,"net":"tx","code":"2026bndjxf","ids":",tx2026bndjxf,us7000rra8,","sources":",tx,us,","types":",dyfi,origin,phase-data,","nst":25,"dmin":0.1,"rms":0.2,"gap":72,"magType":"ml","type":"earthquake","title":"M 2.5 - 10 km SSE of Coyanosa, Texas"},"geometry":{"type":"Point","coordinates":[-103.024,31.157,3.6646]},"id":"tx2026bndjxf"},
{"type":"Feature","properties":{"mag":2.8,"place":"56 km S of Whites City, New Mexico","time":1768998654995,"updated":1776523661040,"tz":null,"url":"https://earthquake.usgs.gov/earthquakes/eventpage/tx2026blrhfm","detail":"https://earthquake.usgs.gov/fdsnws/event/1/query?eventid=tx2026blrhfm&format=geojson","felt":1,"cdi":2.2,"mmi":null,"alert":null,"status":"reviewed","tsunami":0,"sig":121,"net":"tx","code":"2026blrhfm","ids":",tx2026blrhfm,us7000rr3x,","sources":",tx,us,","types":",dyfi,origin,phase-data,","nst":21,"dmin":0.1,"rms":0.2,"gap":69,"magType":"ml","type":"earthquake","title":"M 2.8 - 56 km S of Whites City, New Mexico"},"geometry":{"type":"Point","coordinates":[-104.363,31.667,8.8171]},"id":"tx2026blrhfm"},
{"type":"Feature","properties":{"mag":2.5,"place":"56 km S of Whites City, New Mexico","time":1768998648598,"updated":1776523660040,"tz":null,"url":"https://earthquake.usgs.gov/earthquakes/eventpage/tx2026blrkqz","detail":"https://earthquake.usgs.gov/fdsnws/event/1/query?eventid=tx2026blrkqz&format=geojson","felt":null,"cdi":null,"mmi":null,"alert":null,"status":"reviewed","tsunami":0,"sig":96,"net":"tx","code":"2026blrkqz","ids":",us7000rr3j,tx2026blrkqz,","sources":",us,tx,","types":",origin,phase-data,","nst":29,"dmin":0.1,"rms":0.2,"gap":69,"magType":"ml","type":"earthquake","title":"M 2.5 - 56 km S of Whites City, New Mexico"},"geometry":{"type":"Point","coordinates":[-104.36,31.663,6.6638]},"id":"tx2026blrkqz"},
{"type":"Feature","properties":{"mag":3.2,"place":"56 km S of Whites City, New Mexico","time":1768998183054,"updated":1776523660040,"tz":null,"url":"https://earthquake.usgs.gov/earthquakes/eventpage/tx2026blrdxi","detail":"https://earthquake.usgs.gov/fdsnws/event/1/query?eventid=tx2026blrdxi&format=geojson","felt":null,"cdi":null,"mmi":null,"alert":null,"status":"reviewed","tsunami":0,"sig":158,"net":"tx","code":"2026blrdxi","ids":",us7000rr3g,tx2026blrdxi,","sources":",us,tx,","types":",origin,phase-data,","nst":32,"dmin":0.1,"rms":0.1,"gap":69,"magType":"ml","type":"earthquake","title":"M 3.2 - 56 km S of Whites City, New Mexico"},"geometry":{"type":"Point","coordinates":[-104.357,31.667,6.6638]},"id":"tx2026blrdxi"},
{"type":"Feature","properties":{"mag":3,"place":"56 km S of Whites City, New Mexico","time":1768998014150,"updated":1776523660040,"tz":null,"url":"https://earthquake.usgs.gov/earthquakes/eventpage/tx2026blqytz","detail":"https://earthquake.usgs.gov/fdsnws/event/1/query?eventid=tx2026blqytz&format=geojson","felt":null,"cdi":null,"mmi":null,"alert":null,"status":"reviewed","tsunami":0,"sig":138,"net":"tx","code":"2026blqytz","ids":",us7000rr3e,tx2026blqytz,","sources":",us,tx,","types":",origin,phase-data,","nst":29,"dmin":0.1,"rms":0.1,"gap":69,"magType":"ml","type":"earthquake","title":"M 3.0 - 56 km S of Whites City, New Mexico"},"geometry":{"type":"Point","coordinates":[-104.361,31.668,6.5356]},"id":"tx2026blqytz"},
{"type":"Feature","properties":{"mag":2.8,"place":"32 km NW of Toyah, Texas","time":1768837553851,"updated":1776523638040,"tz":null,"url":"https://earthquake.usgs.gov/earthquakes/eventpage/tx2026bigirb","detail":"https://earthquake.usgs.gov/fdsnws/event/1/query?eventid=tx2026bigirb&format=geojson","felt":null,"cdi":null,"mmi":null,"alert":null,"status":"reviewed","tsunami":0,"sig":121,"net":"tx","code":"2026bigirb","ids":",us7000rqki,tx2026bigirb,","sources":",us,tx,","types":",origin,phase-data,","nst":28,"dmin":0,"rms":0.1,"gap":57,"magType":"ml","type":"earthquake","title":"M 2.8 - 32 km NW of Toyah, Texas"},"geometry":{"type":"Point","coordinates":[-104.013,31.538,6.8304]},"id":"tx2026bigirb"},
{"type":"Feature","properties":{"mag":2.57,"place":"9 km W of Loyal, Oklahoma","time":1768657897509,"updated":1776523623040,"tz":null,"url":"https://earthquake.usgs.gov/earthquakes/eventpage/ok2026behm","detail":"https://earthquake.usgs.gov/fdsnws/event/1/query?eventid=ok2026behm&format=geojson","felt":1,"cdi":0,"mmi":null,"alert":null,"status":"reviewed","tsunami":0,"sig":102,"net":"ok","code":"2026behm","ids":",ok2026behm,us7000rqan,","sources":",ok,us,","types":",dyfi,origin,phase-data,","nst":99,"dmin":0,"rms":0.09,"gap":51,"magType":"ml","type":"earthquake","title":"M 2.6 - 9 km W of Loyal, Oklahoma"},"geometry":{"type":"Point","coordinates":[-98.2275,35.96683333,6.35]},"id":"ok2026behm"},
{"type":"Feature","properties":{"mag":3.1,"place":"32 km NW of Toyah, Texas","time":1768653726705,"updated":1776523623040,"tz":null,"url":"https://earthquake.usgs.gov/earthquakes/eventpage/tx2026beiwut","detail":"https://earthquake.usgs.gov/fdsnws/event/1/query?eventid=tx2026beiwut&format=geojson","felt":null,"cdi":null,"mmi":null,"alert":null,"status":"reviewed","tsunami":0,"sig":148,"net":"tx","code":"2026beiwut","ids":",us7000rqak,tx2026beiwut,","sources":",us,tx,","types":",origin,phase-data,","nst":38,"dmin":0,"rms":0.1,"gap":57,"magType":"ml","type":"earthquake","title":"M 3.1 - 32 km NW of Toyah, Texas"},"geometry":{"type":"Point","coordinates":[-104.015,31.536,6.8304]},"id":"tx2026beiwut"},
{"type":"Feature","properties":{"mag":2.5,"place":"11 km WSW of Stanton, Texas","time":1768531441418,"updated":1776523612040,"tz":null,"url":"https://earthquake.usgs.gov/earthquakes/eventpage/tx2026bbtinz","detail":"https://earthquake.usgs.gov/fdsnws/event/1/query?eventid=tx2026bbtinz&format=geojson","felt":1,"cdi":4.6,"mmi":null,"alert":null,"status":"reviewed","tsunami":0,"sig":97,"net":"tx","code":"2026bbtinz","ids":",tx2026bbtinz,us7000rq03,","sources":",tx,us,","types":",dyfi,origin,phase-data,","nst":25,"dmin":0.1,"rms":0.1,"gap":55,"magType":"ml","type":"earthquake","title":"M 2.5 - 11 km WSW of Stanton, Texas"},"geometry":{"type":"Point","coordinates":[-101.911,32.107,8.667]},"id":"tx2026bbtinz"},
{"type":"Feature","properties":{"mag":3.2,"place":"31 km NW of Toyah, Texas","time":1768529154015,"updated":1776523612040,"tz":null,"url":"https://earthquake.usgs.gov/earthquakes/eventpage/tx2026bbsbqt","detail":"https://earthquake.usgs.gov/fdsnws/event/1/query?eventid=tx2026bbsbqt&format=geojson","felt":null,"cdi":null,"mmi":null,"alert":null,"status":"reviewed","tsunami":0,"sig":158,"net":"tx","code":"2026bbsbqt","ids":",us7000rpzs,tx2026bbsbqt,","sources":",us,tx,","types":",origin,phase-data,","nst":31,"dmin":0,"rms":0.1,"gap":56,"magType":"ml","type":"earthquake","title":"M 3.2 - 31 km NW of Toyah, Texas"},"geometry":{"type":"Point","coordinates":[-104.01,31.533,6.2408]},"id":"tx2026bbsbqt"},
{"type":"Feature","properties":{"mag":2.7,"place":"56 km S of Whites City, New Mexico","time":1768271547553,"updated":1775834446040,"tz":null,"url":"https://earthquake.usgs.gov/earthquakes/eventpage/tx2026awftyf","detail":"https://earthquake.usgs.gov/fdsnws/event/1/query?eventid=tx2026awftyf&format=geojson","felt":null,"cdi":null,"mmi":null,"alert":null,"status":"reviewed","tsunami":0,"sig":112,"net":"tx","code":"2026awftyf","ids":",us7000rpb8,tx2026awftyf,","sources":",us,tx,","types":",origin,phase-data,","nst":42,"dmin":0.1,"rms":0.2,"gap":69,"magType":"ml","type":"earthquake","title":"M 2.7 - 56 km S of Whites City, New Mexico"},"geometry":{"type":"Point","coordinates":[-104.365,31.665,6.7407]},"id":"tx2026awftyf"},
{"type":"Feature","properties":{"mag":2.7,"place":"8 km NE of Amarillo, Texas","time":1768254114120,"updated":1775834446040,"tz":null,"url":"https://earthquake.usgs.gov/earthquakes/eventpage/tx2026avwbns","detail":"https://earthquake.usgs.gov/fdsnws/event/1/query?eventid=tx2026avwbns&format=geojson","felt":4,"cdi":3.4,"mmi":null,"alert":null,"status":"reviewed","tsunami":0,"sig":114,"net":"tx","code":"2026avwbns","ids":",tx2026avwbns,us7000rp9l,","sources":",tx,us,","types":",dyfi,origin,phase-data,","nst":11,"dmin":0.2,"rms":0.3,"gap":79,"magType":"ml","type":"earthquake","title":"M 2.7 - 8 km NE of Amarillo, Texas"},"geometry":{"type":"Point","coordinates":[-101.763,35.274,8.6182]},"id":"tx2026avwbns"},
{"type":"Feature","properties":{"mag":2.5,"place":"40 km NW of Toyah, Texas","time":1768082919554,"updated":1775834443040,"tz":null,"url":"https://earthquake.usgs.gov/earthquakes/eventpage/tx2026asfowl","detail":"https://earthquake.usgs.gov/fdsnws/event/1/query?eventid=tx2026asfowl&format=geojson","felt":null,"cdi":null,"mmi":null,"alert":null,"status":"reviewed","tsunami":0,"sig":96,"net":"tx","code":"2026asfowl","ids":",us7000rnzh,tx2026asfowl,","sources":",us,tx,","types":",origin,phase-data,","nst":15,"dmin":0,"rms":0.1,"gap":75,"magType":"ml","type":"earthquake","title":"M 2.5 - 40 km NW of Toyah, Texas"},"geometry":{"type":"Point","coordinates":[-104.13,31.544,7.7405]},"id":"tx2026asfowl"},
{"type":"Feature","properties":{"mag":2.8,"place":"15 km NE of Amarillo, Texas","time":1768034039925,"updated":1784847826894,"tz":null,"url":"https://earthquake.usgs.gov/earthquakes/eventpage/tx2026areowl","detail":"https://earthquake.usgs.gov/fdsnws/event/1/query?eventid=tx2026areowl&format=geojson","felt":9,"cdi":3.8,"mmi":null,"alert":null,"status":"reviewed","tsunami":0,"sig":124,"net":"tx","code":"2026areowl","ids":",tx2026areowl,us7000rnuz,","sources":",tx,us,","types":",dyfi,origin,phase-data,","nst":11,"dmin":0.2,"rms":0.2,"gap":81,"magType":"ml","type":"earthquake","title":"M 2.8 - 15 km NE of Amarillo, Texas"},"geometry":{"type":"Point","coordinates":[-101.695,35.305,5.6396]},"id":"tx2026areowl"},
{"type":"Feature","properties":{"mag":2.8,"place":"26 km SW of Jal, New Mexico","time":1767800720120,"updated":1775599918040,"tz":null,"url":"https://earthquake.usgs.gov/earthquakes/eventpage/tx2026amfrxm","detail":"https://earthquake.usgs.gov/fdsnws/event/1/query?eventid=tx2026amfrxm&format=geojson","felt":null,"cdi":null,"mmi":null,"alert":null,"status":"reviewed","tsunami":0,"sig":121,"net":"tx","code":"2026amfrxm","ids":",us7000rn83,tx2026amfrxm,","sources":",us,tx,","types":",origin,phase-data,","nst":19,"dmin":0,"rms":0.1,"gap":52,"magType":"ml","type":"earthquake","title":"M 2.8 - 26 km SW of Jal, New Mexico"},"geometry":{"type":"Point","coordinates":[-103.385,31.938,6.651]},"id":"tx2026amfrxm"},
{"type":"Feature","properties":{"mag":2.82,"place":"8 km SE of Sparks, Oklahoma","time":1767668013759,"updated":1775599915040,"tz":null,"url":"https://earthquake.usgs.gov/earthquakes/eventpage/ok2026ajjg","detail":"https://earthquake.usgs.gov/fdsnws/event/1/query?eventid=ok2026ajjg&format=geojson","felt":9,"cdi":4.2,"mmi":null,"alert":null,"status":"reviewed","tsunami":0,"sig":126,"net":"ok","code":"2026ajjg","ids":",us7000rmr9,ok2026ajjg,","sources":",us,ok,","types":",dyfi,origin,phase-data,","nst":96,"dmin":0,"rms":0.17,"gap":45,"magType":"ml","type":"earthquake","title":"M 2.8 - 8 km SE of Sparks, Oklahoma"},"geometry":{"type":"Point","coordinates":[-96.74616667,35.55566667,5.36]},"id":"ok2026ajjg"},
{"type":"Feature","properties":{"mag":2.6,"place":"17 km NW of Whites City, New Mexico","time":1767531994516,"updated":1775599914040,"tz":null,"url":"https://earthquake.usgs.gov/earthquakes/eventpage/us7000rmfd","detail":"https://earthquake.usgs.gov/fdsnws/event/1/query?eventid=us7000rmfd&format=geojson","felt":null,"cdi":null,"mmi":null,"alert":null,"status":"reviewed","tsunami":0,"sig":104,"net":"us","code":"7000rmfd","ids":",us7000rmfd,","sources":",us,","types":",origin,phase-data,","nst":22,"dmin":0.53,"rms":0.21,"gap":168,"magType":"ml","type":"earthquake","title":"M 2.6 - 17 km NW of Whites City, New Mexico"},"geometry":{"type":"Point","coordinates":[-104.4887,32.3007,5.946]},"id":"us7000rmfd"},
{"type":"Feature","properties":{"mag":3,"place":"26 km SW of Jal, New Mexico","time":1767519713948,"updated":1775599914040,"tz":null,"url":"https://earthquake.usgs.gov/earthquakes/eventpage/tx2026aggjwi","detail":"https://earthquake.usgs.gov/fdsnws/event/1/query?eventid=tx2026aggjwi&format=geojson","felt":null,"cdi":null,"mmi":null,"alert":null,"status":"reviewed","tsunami":0,"sig":138,"net":"tx","code":"2026aggjwi","ids":",us7000rmea,tx2026aggjwi,","sources":",us,tx,","types":",origin,phase-data,","nst":22,"dmin":0,"rms":0.1,"gap":85,"magType":"ml","type":"earthquake","title":"M 3.0 - 26 km SW of Jal, New Mexico"},"geometry":{"type":"Point","coordinates":[-103.383,31.937,5.7281]},"id":"tx2026aggjwi"},
{"type":"Feature","properties":{"mag":3,"place":"23 km S of Westbrook, Texas","time":1767380926421,"updated":1775599911040,"tz":null,"url":"https://earthquake.usgs.gov/earthquakes/eventpage/tx2026adhuqg","detail":"https://earthquake.usgs.gov/fdsnws/event/1/query?eventid=tx2026adhuqg&format=geojson","felt":2,"cdi":3.4,"mmi":null,"alert":null,"status":"reviewed","tsunami":0,"sig":139,"net":"tx","code":"2026adhuqg","ids":",tx2026adhuqg,us7000rm50,","sources":",tx,us,","types":",dyfi,origin,phase-data,","nst":18,"dmin":0.2,"rms":0.2,"gap":79,"magType":"ml","type":"earthquake","title":"M 3.0 - 23 km S of Westbrook, Texas"},"geometry":{"type":"Point","coordinates":[-101.05,32.143,6.0791]},"id":"tx2026adhuqg"},
{"type":"Feature","properties":{"mag":2.9,"place":"23 km S of Westbrook, Texas","time":1767380914706,"updated":1775599911040,"tz":null,"url":"https://earthquake.usgs.gov/earthquakes/eventpage/tx2026adhuqq","detail":"https://earthquake.usgs.gov/fdsnws/event/1/query?eventid=tx2026adhuqq&format=geojson","felt":null,"cdi":null,"mmi":null,"alert":null,"status":"reviewed","tsunami":0,"sig":129,"net":"tx","code":"2026adhuqq","ids":",us7000rm4r,tx2026adhuqq,","sources":",us,tx,","types":",origin,phase-data,","nst":27,"dmin":0.2,"rms":0.1,"gap":89,"magType":"ml","type":"earthquake","title":"M 2.9 - 23 km S of Westbrook, Texas"},"geometry":{"type":"Point","coordinates":[-101.06,32.143,7.5439]},"id":"tx2026adhuqq"},
{"type":"Feature","properties":{"mag":2.7,"place":"57 km S of Whites City, New Mexico","time":1767297162759,"updated":1775599910040,"tz":null,"url":"https://earthquake.usgs.gov/earthquakes/eventpage/tx2026abnntd","detail":"https://earthquake.usgs.gov/fdsnws/event/1/query?eventid=tx2026abnntd&format=geojson","felt":null,"cdi":null,"mmi":null,"alert":null,"status":"reviewed","tsunami":0,"sig":112,"net":"tx","code":"2026abnntd","ids":",us7000rlz0,tx2026abnntd,","sources":",us,tx,","types":",origin,phase-data,","nst":32,"dmin":0,"rms":0.1,"gap":57,"magType":"ml","type":"earthquake","title":"M 2.7 - 57 km S of Whites City, New Mexico"},"geometry":{"type":"Point","coordinates":[-104.39,31.66,5.177]},"id":"tx2026abnntd"},
{"type":"Feature","properties":{"mag":2.8,"place":"16 km NNW of Whites City, New Mexico","time":1767263789906,"updated":1775599909040,"tz":null,"url":"https://earthquake.usgs.gov/earthquakes/eventpage/us7000rlvt","detail":"https://earthquake.usgs.gov/fdsnws/event/1/query?eventid=us7000rlvt&format=geojson","felt":null,"cdi":null,"mmi":null,"alert":null,"status":"reviewed","tsunami":0,"sig":121,"net":"us","code":"7000rlvt","ids":",us7000rlvt,","sources":",us,","types":",origin,phase-data,","nst":44,"dmin":0.509,"rms":0.5,"gap":50,"magType":"ml","type":"earthquake","title":"M 2.8 - 16 km NNW of Whites City, New Mexico"},"geometry":{"type":"Point","coordinates":[-104.4596,32.3016,9.026]},"id":"us7000rlvt"}],"bbox":[-104.4887,31.157,3.6646,-96.74616667,35.96683333,9.79]}