{"type":"FeatureCollection","metadata":{"generated":1787651283000,"url":"https://earthquake.usgs.gov/fdsnws/event/1/query?format=geojson&starttime=2026-03-01&endtime=2026-04-01&minmagnitude=2.5&minlatitude=31.0&maxlatitude=37.0&minlongitude=-104.5&maxlongitude=-94.4","title":"USGS Earthquakes","status":200,"api":"2.7.0","count":64},"features":[{"type":"Feature","properties":{"mag":2.5,"place":"23 km WNW of Mentone, Texas","time":1774952725866,"updated":1781104499040,"tz":null,"url":"https://earthquake.usgs.gov/earthquakes/eventpage/tx2026gieiid","detail":"https://earthquake.usgs.gov/fdsnws/event/1/query?eventid=tx2026gieiid&format=geojson","felt":null,"cdi":null,"mmi":null,"alert":null,"status":"reviewed","tsunami":0,"sig":96,"net":"tx","code":"2026gieiid","ids":",us7000s92e,tx2026gieiid,","sources":",us,tx,","types":",origin,phase-data,","nst":38,"dmin":0,"rms":0.1,"gap":57,"magType":"ml","type":"earthquake","title":"M 2.5 - 23 km WNW of Mentone, Texas"},"geometry":{"type":"Point","coordinates":[-103.839,31.755,7.9327]},"id":"tx2026gieiid"},
{"type":"Feature","properties":{"mag":2.9,"place":"23 km WNW of Mentone, Texas","time":1774913909274,"updated":1781104498040,"tz":null,"url":"https://earthquake.usgs.gov/earthquakes/eventpage/tx2026ghixus","detail":"https://earthquake.usgs.gov/fdsnws/event/1/query?eventid=tx2026ghixus&format=geojson","felt":null,"cdi":null,"mmi":null,"alert":null,"status":"reviewed","tsunami":0,"sig":129,"net":"tx","code":"2026ghixus","ids":",us7000s8yz,tx2026ghixus,","sources":",us,tx,","types":",origin,phase-data,","nst":36,"dmin":0,"rms":0.1,"gap":58,"magType":"ml","type":"earthquake","title":"M 2.9 - 23 km WNW of Mentone, Texas"},"geometry":{"type":"Point","coordinates":[-103.837,31.758,8.5992]},"id":"tx2026ghixus"},
{"type":"Feature","properties":{"mag":2.7,"place":"22 km WNW of Mentone, Texas","time":1774893050373,"updated":1781104497040,"tz":null,"url":"https://earthquake.usgs.gov/earthquakes/eventpage/tx2026ggxjvj","detail":"https://earthquake.usgs.gov/fdsnws/event/1/query?eventid=tx2026ggxjvj&format=geojson","felt":null,"cdi":null,"mmi":null,"alert":null,"status":"reviewed","tsunami":0,"sig":112,"net":"tx","code":"2026ggxjvj","ids":",us7000s8vm,tx2026ggxjvj,","sources":",us,tx,","types":",origin,phase-data,","nst":26,"dmin":0,"rms":0.1,"gap":62,"magType":"ml","type":"earthquake","title":"M 2.7 - 22 km WNW of Mentone, Texas"},"geometry":{"type":"Point","coordinates":[-103.824,31.761,7.702]},"id":"tx2026ggxjvj"},
{"type":"Feature","properties":{"mag":2.7,"place":"55 km S of Whites City, New Mexico","time":1774885811010,"updated":1781104497040,"tz":null,"url":"https://earthquake.usgs.gov/earthquakes/eventpage/tx2026ggtkgf","detail":"https://earthquake.usgs.gov/fdsnws/event/1/query?eventid=tx2026ggtkgf&format=geojson","felt":null,"cdi":null,"mmi":null,"alert":null,"status":"reviewed","tsunami":0,"sig":112,"net":"tx","code":"2026ggtkgf","ids":",us7000s8v0,tx2026ggtkgf,","sources":",us,tx,","types":",origin,phase-data,","nst":36,"dmin":0,"rms":0.1,"gap":69,"magType":"ml","type":"earthquake","title":"M 2.7 - 55 km S of Whites City, New Mexico"},"geometry":{"type":"Point","coordinates":[-104.399,31.676,6.0999]},"id":"tx2026ggtkgf"},
{"type":"Feature","properties":{"mag":3.1,"place":"22 km WNW of Mentone, Texas","time":1774855846157,"updated":1781104497040,"tz":null,"url":"https://earthquake.usgs.gov/earthquakes/eventpage/tx2026ggcvrn","detail":"https://earthquake.usgs.gov/fdsnws/event/1/query?eventid=tx2026ggcvrn&format=geojson","felt":null,"cdi":null,"mmi":null,"alert":null,"status":"reviewed","tsunami":0,"sig":148,"net":"tx","code":"2026ggcvrn","ids":",us7000s8pj,tx2026ggcvrn,","sources":",us,tx,","types":",origin,phase-data,","nst":39,"dmin":0,"rms":0.1,"gap":26,"magType":"ml","type":"earthquake","title":"M 3.1 - 22 km WNW of Mentone, Texas"},"geometry":{"type":"Point","coordinates":[-103.833,31.759,7.7405]},"id":"tx2026ggcvrn"},
{"type":"Feature","properties":{"mag":3.2,"place":"22 km WNW of Mentone, Texas","time":1774836635268,"updated":1781104496040,"tz":null,"url":"https://earthquake.usgs.gov/earthquakes/eventpage/tx2026gfsfzr","detail":"https://earthquake.usgs.gov/fdsnws/event/1/query?eventid=tx2026gfsfzr&format=geojson","felt":null,"cdi":null,"mmi":null,"alert":null,"status":"reviewed","tsunami":0,"sig":158,"net":"tx","code":"2026gfsfzr","ids":",us7000s8n0,tx2026gfsfzr,","sources":",us,tx,","types":",moment-tensor,origin,phase-data,","nst":35,"dmin":0,"rms":0.1,"gap":41,"magType":"ml","type":"earthquake","title":"M 3.2 - 22 km WNW of Mentone, Texas"},"geometry":{"type":"Point","coordinates":[-103.831,31.759,7.9456]},"id":"tx2026gfsfzr"},
{"type":"Feature","properties":{"mag":3.7,"place":"22 km WNW of Mentone, Texas","time":1774834042906,"updated":1781104496040,"tz":null,"url":"https://earthquake.usgs.gov/earthquakes/eventpage/tx2026gfqujs","detail":"https://earthquake.usgs.gov/fdsnws/event/1/query?eventid=tx2026gfqujs&format=geojson","felt":2,"cdi":4.1,"mmi":4.648,"alert":null,"status":"reviewed","tsunami":0,"sig":211,"net":"tx","code":"2026gfqujs","ids":",us7000s8ml,tx2026gfqujs,","sources":",us,tx,","types":",dyfi,moment-tensor,origin,phase-data,shakemap,","nst":33,"dmin":0,"rms":0.1,"gap":40,"magType":"ml","type":"earthquake","title":"M 3.7 - 22 km WNW of Mentone, Texas"},"geometry":{"type":"Point","coordinates":[-103.834,31.758,8.83]},"id":"tx2026gfqujs"},
{"type":"Feature","properties":{"mag":2.8,"place":"49 km NW of Toyah, Texas","time":1774782132792,"updated":1781104495040,"tz":null,"url":"https://earthquake.usgs.gov/earthquakes/eventpage/tx2026geodfo","detail":"https://earthquake.usgs.gov/fdsnws/event/1/query?eventid=tx2026geodfo&format=geojson","felt":null,"cdi":null,"mmi":null,"alert":null,"status":"reviewed","tsunami":0,"sig":121,"net":"tx","code":"2026geodfo","ids":",us7000s8iy,tx2026geodfo,","sources":",us,tx,","types":",origin,phase-data,","nst":62,"dmin":0.1,"rms":0.2,"gap":51,"magType":"ml","type":"earthquake","title":"M 2.8 - 49 km NW of Toyah, Texas"},"geometry":{"type":"Point","coordinates":[-104.138,31.652,6.933]},"id":"tx2026geodfo"},
{"type":"Feature","properties":{"mag":2.9,"place":"17 km N of Snyder, Texas","time":1774762020439,"updated":1781104495040,"tz":null,"url":"https://earthquake.usgs.gov/earthquakes/eventpage/tx2026gedaji","detail":"https://earthquake.usgs.gov/fdsnws/event/1/query?eventid=tx2026gedaji&format=geojson","felt":2,"cdi":2,"mmi":null,"alert":null,"status":"reviewed","tsunami":0,"sig":130,"net":"tx","code":"2026gedaji","ids":",tx2026gedaji,us7000s8hj,","sources":",tx,us,","types":",dyfi,origin,phase-data,","nst":35,"dmin":0,"rms":0.2,"gap":42,"magType":"ml","type":"earthquake","title":"M 2.9 - 17 km N of Snyder, Texas"},"geometry":{"type":"Point","coordinates":[-100.912,32.879,6.8115]},"id":"tx2026gedaji"},
{"type":"Feature","properties":{"mag":2.8,"place":"57 km S of Whites City, New Mexico","time":1774748615119,"updated":1781104495040,"tz":null,"url":"https://earthquake.usgs.gov/earthquakes/eventpage/tx2026gdvpvt","detail":"https://earthquake.usgs.gov/fdsnws/event/1/query?eventid=tx2026gdvpvt&format=geojson","felt":null,"cdi":null,"mmi":null,"alert":null,"status":"reviewed","tsunami":0,"sig":121,"net":"tx","code":"2026gdvpvt","ids":",us7000s8gr,tx2026gdvpvt,","sources":",us,tx,","types":",origin,phase-data,","nst":71,"dmin":0.1,"rms":0.2,"gap":67,"magType":"ml","type":"earthquake","title":"M 2.8 - 57 km S of Whites City, New Mexico"},"geometry":{"type":"Point","coordinates":[-104.356,31.657,7.4329]},"id":"tx2026gdvpvt"},
{"type":"Feature","properties":{"mag":2.5,"place":"54 km S of Whites City, New Mexico","time":1774710585201,"updated":1781104494040,"tz":null,"url":"https://earthquake.usgs.gov/earthquakes/eventpage/tx2026gdapmk","detail":"https://earthquake.usgs.gov/fdsnws/event/1/query?eventid=tx2026gdapmk&format=geojson","felt":null,"cdi":null,"mmi":null,"alert":null,"status":"reviewed","tsunami":0,"sig":96,"net":"tx","code":"2026gdapmk","ids":",us7000s8dl,tx2026gdapmk,","sources":",us,tx,","types":",origin,phase-data,","nst":33,"dmin":0,"rms":0.2,"gap":69,"magType":"ml","type":"earthquake","title":"M 2.5 - 54 km S of Whites City, New Mexico"},"geometry":{"type":"Point","coordinates":[-104.409,31.682,6.3562]},"id":"tx2026gdapmk"},
{"type":"Feature","properties":{"mag":2.5,"place":"17 km N of Snyder, Texas","time":1774676288870,"updated":1781104494040,"tz":null,"url":"https://earthquake.usgs.gov/earthquakes/eventpage/tx2026gchrca","detail":"https://earthquake.usgs.gov/fdsnws/event/1/query?eventid=tx2026gchrca&format=geojson","felt":null,"cdi":null,"mmi":null,"alert":null,"status":"reviewed","tsunami":0,"sig":96,"net":"tx","code":"2026gchrca","ids":",us7000s8bp,tx2026gchrca,","sources":",us,tx,","types":",origin,phase-data,","nst":65,"dmin":0,"rms":0.2,"gap":53,"magType":"ml","type":"earthquake","title":"M 2.5 - 17 km N of Snyder, Texas"},"geometry":{"type":"Point","coordinates":[-100.926,32.88,6.7871]},"id":"tx2026gchrca"},
{"type":"Feature","properties":{"mag":2.6,"place":"26 km SW of Coyanosa, Texas","time":1774643855987,"updated":1781104493040,"tz":null,"url":"https://earthquake.usgs.gov/earthquakes/eventpage/tx2026gbptcz","detail":"https://earthquake.usgs.gov/fdsnws/event/1/query?eventid=tx2026gbptcz&format=geojson","felt":null,"cdi":null,"mmi":null,"alert":null,"status":"reviewed","tsunami":0,"sig":104,"net":"tx","code":"2026gbptcz","ids":",us7000s88i,tx2026gbptcz,","sources":",us,tx,","types":",origin,phase-data,","nst":29,"dmin":0.1,"rms":0.4,"gap":68,"magType":"ml","type":"earthquake","title":"M 2.6 - 26 km SW of Coyanosa, Texas"},"geometry":{"type":"Point","coordinates":[-103.238,31.056,4.5874]},"id":"tx2026gbptcz"},
{"type":"Feature","properties":{"mag":2.7,"place":"6 km NNE of Midland, Texas","time":1774628203341,"updated":1781104492040,"tz":null,"url":"https://earthquake.usgs.gov/earthquakes/eventpage/tx2026gbhagg","detail":"https://earthquake.usgs.gov/fdsnws/event/1/query?eventid=tx2026gbhagg&format=geojson","felt":24,"cdi":4.4,"mmi":null,"alert":null,"status":"reviewed","tsunami":0,"sig":123,"net":"tx","code":"2026gbhagg","ids":",us7000s85j,tx2026gbhagg,","sources":",us,tx,","types":",dyfi,origin,phase-data,","nst":53,"dmin":0,"rms":0.1,"gap":51,"magType":"ml","type":"earthquake","title":"M 2.7 - 6 km NNE of Midland, Texas"},"geometry":{"type":"Point","coordinates":[-102.042,32.048,5.7861]},"id":"tx2026gbhagg"},
{"type":"Feature","properties":{"mag":3.6,"place":"57 km S of Whites City, New Mexico","time":1774512568464,"updated":1781104490040,"tz":null,"url":"https://earthquake.usgs.gov/earthquakes/eventpage/tx2026fyvfnb","detail":"https://earthquake.usgs.gov/fdsnws/event/1/query?eventid=tx2026fyvfnb&format=geojson","felt":2,"cdi":3.1,"mmi":3.888,"alert":null,"status":"reviewed","tsunami":0,"sig":200,"net":"tx","code":"2026fyvfnb","ids":",us7000s7r3,tx2026fyvfnb,","sources":",us,tx,","types":",dyfi,moment-tensor,origin,phase-data,shakemap,","nst":55,"dmin":0,"rms":0.1,"gap":67,"magType":"ml","type":"earthquake","title":"M 3.6 - 57 km S of Whites City, New Mexico"},"geometry":{"type":"Point","coordinates":[-104.491,31.668,6.0999]},"id":"tx2026fyvfnb"},
{"type":"Feature","properties":{"mag":3.5,"place":"55 km S of Whites City, New Mexico","time":1774492949844,"updated":1781104490040,"tz":null,"url":"https://earthquake.usgs.gov/earthquakes/eventpage/tx2026fykjyv","detail":"https://earthquake.usgs.gov/fdsnws/event/1/query?eventid=tx2026fykjyv&format=geojson","felt":1,"cdi":2,"mmi":3.809,"alert":null,"status":"reviewed","tsunami":0,"sig":189,"net":"tx","code":"2026fykjyv","ids":",tx2026fykjyv,us7000s7pw,","sources":",tx,us,","types":",dyfi,moment-tensor,origin,phase-data,shakemap,","nst":67,"dmin":0,"rms":0.1,"gap":65,"magType":"ml","type":"earthquake","title":"M 3.5 - 55 km S of Whites City, New Mexico"},"geometry":{"type":"Point","coordinates":[-104.491,31.681,6.0999]},"id":"tx2026fykjyv"},
{"type":"Feature","properties":{"mag":2.9,"place":"56 km S of Whites City, New Mexico","time":1774491281922,"updated":1781104490040,"tz":null,"url":"https://earthquake.usgs.gov/earthquakes/eventpage/tx2026fyjlzi","detail":"https://earthquake.usgs.gov/fdsnws/event/1/query?eventid=tx2026fyjlzi&format=geojson","felt":null,"cdi":null,"mmi":null,"alert":null,"status":"reviewed","tsunami":0,"sig":129,"net":"tx","code":"2026fyjlzi","ids":",us7000s7ps,tx2026fyjlzi,","sources":",us,tx,","types":",origin,phase-data,","nst":54,"dmin":0,"rms":0.2,"gap":71,"magType":"ml","type":"earthquake","title":"M 2.9 - 56 km S of Whites City, New Mexico"},"geometry":{"type":"Point","coordinates":[-104.449,31.666,5.4718]},"id":"tx2026fyjlzi"},
{"type":"Feature","properties":{"mag":2.6,"place":"54 km SSE of Whites City, New Mexico","time":1774402906406,"updated":1780598284040,"tz":null,"url":"https://earthquake.usgs.gov/earthquakes/eventpage/tx2026fwmqrf","detail":"https://earthquake.usgs.gov/fdsnws/event/1/query?eventid=tx2026fwmqrf&format=geojson","felt":null,"cdi":null,"mmi":null,"alert":null,"status":"reviewed","tsunami":0,"sig":104,"net":"tx","code":"2026fwmqrf","ids":",us7000s7ft,tx2026fwmqrf,","sources":",us,tx,","types":",origin,phase-data,","nst":49,"dmin":0.1,"rms":0.2,"gap":64,"magType":"ml","type":"earthquake","title":"M 2.6 - 54 km SSE of Whites City, New Mexico"},"geometry":{"type":"Point","coordinates":[-104.178,31.711,7.2662]},"id":"tx2026fwmqrf"},
{"type":"Feature","properties":{"mag":2.6,"place":"60 km S of Whites City, New Mexico","time":1774374065339,"updated":1780598284040,"tz":null,"url":"https://earthquake.usgs.gov/earthquakes/eventpage/tx2026fvwsnx","detail":"https://earthquake.usgs.gov/fdsnws/event/1/query?eventid=tx2026fvwsnx&format=geojson","felt":null,"cdi":null,"mmi":null,"alert":null,"status":"reviewed","tsunami":0,"sig":104,"net":"tx","code":"2026fvwsnx","ids":",us7000s7cy,tx2026fvwsnx,","sources":",us,tx,","types":",origin,phase-data,","nst":54,"dmin":0.1,"rms":0.2,"gap":76,"magType":"ml","type":"earthquake","title":"M 2.6 - 60 km S of Whites City, New Mexico"},"geometry":{"type":"Point","coordinates":[-104.367,31.631,6.0999]},"id":"tx2026fvwsnx"},
{"type":"Feature","properties":{"mag":2.9,"place":"54 km S of Whites City, New Mexico","time":1774281033426,"updated":1780598280040,"tz":null,"url":"https://earthquake.usgs.gov/earthquakes/eventpage/tx2026ftxicf","detail":"https://earthquake.usgs.gov/fdsnws/event/1/query?eventid=tx2026ftxicf&format=geojson","felt":null,"cdi":null,"mmi":null,"alert":null,"status":"reviewed","tsunami":0,"sig":129,"net":"tx","code":"2026ftxicf","ids":",us6000sixn,tx2026ftxicf,","sources":",us,tx,","types":",origin,phase-data,","nst":54,"dmin":0,"rms":0.2,"gap":68,"magType":"ml","type":"earthquake","title":"M 2.9 - 54 km S of Whites City, New Mexico"},"geometry":{"type":"Point","coordinates":[-104.394,31.684,6.0999]},"id":"tx2026ftxicf"},
{"type":"Feature","properties":{"mag":3.6,"place":"22 km WSW of Carlsbad, New Mexico","time":1774272358903,"updated":1780598280040,"tz":null,"url":"https://earthquake.usgs.gov/earthquakes/eventpage/us6000siwe","detail":"https://earthquake.usgs.gov/fdsnws/event/1/query?eventid=us6000siwe&format=geojson","felt":6,"cdi":4.3,"mmi":4.653,"alert":null,"status":"reviewed","tsunami":0,"sig":202,"net":"us","code":"6000siwe","ids":",us6000siwe,","sources":",us,","types":",dyfi,moment-tensor,origin,phase-data,shakemap,","nst":27,"dmin":0.496,"rms":0.33,"gap":91,"magType":"mwr","type":"earthquake","title":"M 3.6 - 22 km WSW of Carlsbad, New Mexico"},"geometry":{"type":"Point","coordinates":[-104.4632,32.3789,3.142]},"id":"us6000siwe"},
{"type":"Feature","properties":{"mag":2.61,"place":"8 km ENE of Calumet, Oklahoma","time":1774266554910,"updated":1780598280040,"tz":null,"url":"https://earthquake.usgs.gov/earthquakes/eventpage/ok2026fsxd","detail":"https://earthquake.usgs.gov/fdsnws/event/1/query?eventid=ok2026fsxd&format=geojson","felt":2,"cdi":3.1,"mmi":null,"alert":null,"status":"reviewed","tsunami":0,"sig":105,"net":"ok","code":"2026fsxd","ids":",us6000sivb,ok2026fsxd,","sources":",us,ok,","types":",dyfi,origin,phase-data,","nst":98,"dmin":0,"rms":0.13,"gap":40,"magType":"ml","type":"earthquake","title":"M 2.6 - 8 km ENE of Calumet, Oklahoma"},"geometry":{"type":"Point","coordinates":[-98.033,35.62266667,6.36]},"id":"ok2026fsxd"},
{"type":"Feature","properties":{"mag":2.5,"place":"57 km S of Whites City, New Mexico","time":1774182246373,"updated":1780598278040,"tz":null,"url":"https://earthquake.usgs.gov/earthquakes/eventpage/tx2026frutqe","detail":"https://earthquake.usgs.gov/fdsnws/event/1/query?eventid=tx2026frutqe&format=geojson","felt":null,"cdi":null,"mmi":null,"alert":null,"status":"reviewed","tsunami":0,"sig":96,"net":"tx","code":"2026frutqe","ids":",us6000sig9,tx2026frutqe,","sources":",us,tx,","types":",origin,phase-data,","nst":38,"dmin":0.1,"rms":0.2,"gap":69,"magType":"ml","type":"earthquake","title":"M 2.5 - 57 km S of Whites City, New Mexico"},"geometry":{"type":"Point","coordinates":[-104.352,31.66,6.0999]},"id":"tx2026frutqe"},
{"type":"Feature","properties":{"mag":2.91,"place":"5 km SE of Ratliff City, Oklahoma","time":1774158632850,"updated":1780598277040,"tz":null,"url":"https://earthquake.usgs.gov/earthquakes/eventpage/ok2026fqpv","detail":"https://earthquake.usgs.gov/fdsnws/event/1/query?eventid=ok2026fqpv&format=geojson","felt":1,"cdi":2,"mmi":null,"alert":null,"status":"reviewed","tsunami":0,"sig":130,"net":"ok","code":"2026fqpv","ids":",ok2026fqpv,us6000sid7,","sources":",ok,us,","types":",dyfi,origin,phase-data,","nst":94,"dmin":0,"rms":0.33,"gap":41,"magType":"ml","type":"earthquake","title":"M 2.9 - 5 km SE of Ratliff City, Oklahoma"},"geometry":{"type":"Point","coordinates":[-97.46716667,34.41966667,4.83]},"id":"ok2026fqpv"},
{"type":"Feature","properties":{"mag":2.76,"place":"10 km N of Alex, Oklahoma","time":1774106794299,"updated":1780598276040,"tz":null,"url":"https://earthquake.usgs.gov/earthquakes/eventpage/ok2026fpnh","detail":"https://earthquake.usgs.gov/fdsnws/event/1/query?eventid=ok2026fpnh&format=geojson","felt":1,"cdi":2.2,"mmi":null,"alert":null,"status":"reviewed","tsunami":0,"sig":117,"net":"ok","code":"2026fpnh","ids":",us6000si75,ok2026fpnh,","sources":",us,ok,","types":",dyfi,origin,phase-data,","nst":89,"dmin":0,"rms":0.18,"gap":44,"magType":"ml","type":"earthquake","title":"M 2.8 - 10 km N of Alex, Oklahoma"},"geometry":{"type":"Point","coordinates":[-97.75733333,35.0065,11.27]},"id":"ok2026fpnh"},
{"type":"Feature","properties":{"mag":2.9,"place":"55 km S of Whites City, New Mexico","time":1774045901495,"updated":1780598275040,"tz":null,"url":"https://earthquake.usgs.gov/earthquakes/eventpage/tx2026foxllf","detail":"https://earthquake.usgs.gov/fdsnws/event/1/query?eventid=tx2026foxllf&format=geojson","felt":null,"cdi":null,"mmi":null,"alert":null,"status":"reviewed","tsunami":0,"sig":129,"net":"tx","code":"2026foxllf","ids":",us6000shz9,tx2026foxllf,","sources":",us,tx,","types":",origin,phase-data,","nst":17,"dmin":0,"rms":0.2,"gap":69,"magType":"ml","type":"earthquake","title":"M 2.9 - 55 km S of Whites City, New Mexico"},"geometry":{"type":"Point","coordinates":[-104.405,31.672,7.0612]},"id":"tx2026foxllf"},
{"type":"Feature","properties":{"mag":2.9,"place":"55 km S of Whites City, New Mexico","time":1774045880073,"updated":1780598275040,"tz":null,"url":"https://earthquake.usgs.gov/earthquakes/eventpage/tx2026foxlcq","detail":"https://earthquake.usgs.gov/fdsnws/event/1/query?eventid=tx2026foxlcq&format=geojson","felt":null,"cdi":null,"mmi":null,"alert":null,"status":"reviewed","tsunami":0,"sig":129,"net":"tx","code":"2026foxlcq","ids":",us6000shzf,tx2026foxlcq,","sources":",us,tx,","types":",origin,phase-data,","nst":24,"dmin":0,"rms":0.2,"gap":69,"magType":"ml","type":"earthquake","title":"M 2.9 - 55 km S of Whites City, New Mexico"},"geometry":{"type":"Point","coordinates":[-104.406,31.672,6.9714]},"id":"tx2026foxlcq"},
{"type":"Feature","properties":{"mag":2.6,"place":"55 km S of Whites City, New Mexico","time":1774043576797,"updated":1780598275040,"tz":null,"url":"https://earthquake.usgs.gov/earthquakes/eventpage/tx2026fowduj","detail":"https://earthquake.usgs.gov/fdsnws/event/1/query?eventid=tx2026fowduj&format=geojson","felt":null,"cdi":null,"mmi":null,"alert":null,"status":"reviewed","tsunami":0,"sig":104,"net":"tx","code":"2026fowduj","ids":",us6000shyv,tx2026fowduj,","sources":",us,tx,","types":",origin,phase-data,","nst":44,"dmin":0,"rms":0.2,"gap":68,"magType":"ml","type":"earthquake","title":"M 2.6 - 55 km S of Whites City, New Mexico"},"geometry":{"type":"Point","coordinates":[-104.399,31.68,6.0999]},"id":"tx2026fowduj"},
{"type":"Feature","properties":{"mag":2.5,"place":"55 km S of Whites City, New Mexico","time":1774029691357,"updated":1780598275040,"tz":null,"url":"https://earthquake.usgs.gov/earthquakes/eventpage/tx2026foompu","detail":"https://earthquake.usgs.gov/fdsnws/event/1/query?eventid=tx2026foompu&format=geojson","felt":null,"cdi":null,"mmi":null,"alert":null,"status":"reviewed","tsunami":0,"sig":96,"net":"tx","code":"2026foompu","ids":",us6000shx0,tx2026foompu,","sources":",us,tx,","types":",origin,phase-data,","nst":36,"dmin":0,"rms":0.2,"gap":69,"magType":"ml","type":"earthquake","title":"M 2.5 - 55 km S of Whites City, New Mexico"},"geometry":{"type":"Point","coordinates":[-104.396,31.676,5.4333]},"id":"tx2026foompu"},
{"type":"Feature","properties":{"mag":2.6,"place":"13 km W of Stanton, Texas","time":1774018176775,"updated":1780598274040,"tz":null,"url":"https://earthquake.usgs.gov/earthquakes/eventpage/tx2026foidgi","detail":"https://earthquake.usgs.gov/fdsnws/event/1/query?eventid=tx2026foidgi&format=geojson","felt":0,"cdi":1,"mmi":null,"alert":null,"status":"reviewed","tsunami":0,"sig":104,"net":"tx","code":"2026foidgi","ids":",tx2026foidgi,us6000shuv,","sources":",tx,us,","types":",dyfi,origin,phase-data,","nst":34,"dmin":0.1,"rms":0.1,"gap":58,"magType":"ml","type":"earthquake","title":"M 2.6 - 13 km W of Stanton, Texas"},"geometry":{"type":"Point","coordinates":[-101.931,32.108,8.9111]},"id":"tx2026foidgi"},
{"type":"Feature","properties":{"mag":2.7,"place":"13 km WSW of Stanton, Texas","time":1774018016847,"updated":1780598274040,"tz":null,"url":"https://earthquake.usgs.gov/earthquakes/eventpage/tx2026foiayk","detail":"https://earthquake.usgs.gov/fdsnws/event/1/query?eventid=tx2026foiayk&format=geojson","felt":0,"cdi":1,"mmi":null,"alert":null,"status":"reviewed","tsunami":0,"sig":112,"net":"tx","code":"2026foiayk","ids":",us6000shuq,tx2026foiayk,","sources":",us,tx,","types":",dyfi,origin,phase-data,","nst":62,"dmin":0.1,"rms":0.1,"gap":64,"magType":"ml","type":"earthquake","title":"M 2.7 - 13 km WSW of Stanton, Texas"},"geometry":{"type":"Point","coordinates":[-101.926,32.105,9.5947]},"id":"tx2026foiayk"},
{"type":"Feature","properties":{"mag":3,"place":"55 km S of Whites City, New Mexico","time":1773974927645,"updated":1780598273040,"tz":null,"url":"https://earthquake.usgs.gov/earthquakes/eventpage/tx2026fnkgcl","detail":"https://earthquake.usgs.gov/fdsnws/event/1/query?eventid=tx2026fnkgcl&format=geojson","felt":null,"cdi":null,"mmi":null,"alert":null,"status":"reviewed","tsunami":0,"sig":138,"net":"tx","code":"2026fnkgcl","ids":",us6000shnr,tx2026fnkgcl,","sources":",us,tx,","types":",origin,phase-data,","nst":58,"dmin":0,"rms":0.2,"gap":69,"magType":"ml","type":"earthquake","title":"M 3.0 - 55 km S of Whites City, New Mexico"},"geometry":{"type":"Point","coordinates":[-104.39,31.672,6.1127]},"id":"tx2026fnkgcl"},
{"type":"Feature","properties":{"mag":2.9,"place":"57 km S of Whites City, New Mexico","time":1773839181385,"updated":1779823024040,"tz":null,"url":"https://earthquake.usgs.gov/earthquakes/eventpage/tx2026fkngng","detail":"https://earthquake.usgs.gov/fdsnws/event/1/query?eventid=tx2026fkngng&format=geojson","felt":null,"cdi":null,"mmi":null,"alert":null,"status":"reviewed","tsunami":0,"sig":129,"net":"tx","code":"2026fkngng","ids":",us6000sh5q,tx2026fkngng,","sources":",us,tx,","types":",origin,phase-data,","nst":47,"dmin":0,"rms":0.2,"gap":66,"magType":"ml","type":"earthquake","title":"M 2.9 - 57 km S of Whites City, New Mexico"},"geometry":{"type":"Point","coordinates":[-104.401,31.662,5.5487]},"id":"tx2026fkngng"},
{"type":"Feature","properties":{"mag":2.6,"place":"11 km SW of Rotan, Texas","time":1773655876351,"updated":1779823019040,"tz":null,"url":"https://earthquake.usgs.gov/earthquakes/eventpage/tx2026fgpzwz","detail":"https://earthquake.usgs.gov/fdsnws/event/1/query?eventid=tx2026fgpzwz&format=geojson","felt":1,"cdi":3.8,"mmi":null,"alert":null,"status":"reviewed","tsunami":0,"sig":104,"net":"tx","code":"2026fgpzwz","ids":",tx2026fgpzwz,us6000sgki,","sources":",tx,us,","types":",dyfi,origin,phase-data,","nst":36,"dmin":0,"rms":0.2,"gap":75,"magType":"ml","type":"earthquake","title":"M 2.6 - 11 km SW of Rotan, Texas"},"geometry":{"type":"Point","coordinates":[-100.559,32.78,4.0283]},"id":"tx2026fgpzwz"},
{"type":"Feature","properties":{"mag":3,"place":"57 km S of Whites City, New Mexico","time":1773643579661,"updated":1779823018040,"tz":null,"url":"https://earthquake.usgs.gov/earthquakes/eventpage/tx2026fgjfhc","detail":"https://earthquake.usgs.gov/fdsnws/event/1/query?eventid=tx2026fgjfhc&format=geojson","felt":null,"cdi":null,"mmi":null,"alert":null,"status":"reviewed","tsunami":0,"sig":138,"net":"tx","code":"2026fgjfhc","ids":",us6000sgjl,tx2026fgjfhc,","sources":",us,tx,","types":",origin,phase-data,","nst":28,"dmin":0,"rms":0.2,"gap":57,"magType":"ml","type":"earthquake","title":"M 3.0 - 57 km S of Whites City, New Mexico"},"geometry":{"type":"Point","coordinates":[-104.403,31.66,5.8948]},"id":"tx2026fgjfhc"},
{"type":"Feature","properties":{"mag":3.5,"place":"53 km S of Whites City, New Mexico","time":1773606012339,"updated":1779823018040,"tz":null,"url":"https://earthquake.usgs.gov/earthquakes/eventpage/tx2026ffolko","detail":"https://earthquake.usgs.gov/fdsnws/event/1/query?eventid=tx2026ffolko&format=geojson","felt":1,"cdi":2,"mmi":4.378,"alert":null,"status":"reviewed","tsunami":0,"sig":189,"net":"tx","code":"2026ffolko","ids":",tx2026ffolko,us6000sghn,","sources":",tx,us,","types":",dyfi,moment-tensor,origin,phase-data,shakemap,","nst":33,"dmin":0,"rms":0.2,"gap":56,"magType":"ml","type":"earthquake","title":"M 3.5 - 53 km S of Whites City, New Mexico"},"geometry":{"type":"Point","coordinates":[-104.401,31.692,4.8181]},"id":"tx2026ffolko"},
{"type":"Feature","properties":{"mag":2.5,"place":"55 km NW of Toyah, Texas","time":1773557099623,"updated":1779823017040,"tz":null,"url":"https://earthquake.usgs.gov/earthquakes/eventpage/tx2026fenktd","detail":"https://earthquake.usgs.gov/fdsnws/event/1/query?eventid=tx2026fenktd&format=geojson","felt":null,"cdi":null,"mmi":null,"alert":null,"status":"reviewed","tsunami":0,"sig":96,"net":"tx","code":"2026fenktd","ids":",us6000sgf3,tx2026fenktd,","sources":",us,tx,","types":",origin,phase-data,","nst":42,"dmin":0.1,"rms":0.1,"gap":62,"magType":"ml","type":"earthquake","title":"M 2.5 - 55 km NW of Toyah, Texas"},"geometry":{"type":"Point","coordinates":[-104.202,31.669,7.5739]},"id":"tx2026fenktd"},
{"type":"Feature","properties":{"mag":2.7,"place":"49 km W of Mentone, Texas","time":1773481274104,"updated":1779823016040,"tz":null,"url":"https://earthquake.usgs.gov/earthquakes/eventpage/tx2026fcxogc","detail":"https://earthquake.usgs.gov/fdsnws/event/1/query?eventid=tx2026fcxogc&format=geojson","felt":null,"cdi":null,"mmi":null,"alert":null,"status":"reviewed","tsunami":0,"sig":112,"net":"tx","code":"2026fcxogc","ids":",us6000sga5,tx2026fcxogc,","sources":",us,tx,","types":",origin,phase-data,","nst":36,"dmin":0,"rms":0.1,"gap":82,"magType":"ml","type":"earthquake","title":"M 2.7 - 49 km W of Mentone, Texas"},"geometry":{"type":"Point","coordinates":[-104.116,31.667,6.0999]},"id":"tx2026fcxogc"},
{"type":"Feature","properties":{"mag":2.6,"place":"49 km W of Mentone, Texas","time":1773480981063,"updated":1779823016040,"tz":null,"url":"https://earthquake.usgs.gov/earthquakes/eventpage/tx2026fcxjta","detail":"https://earthquake.usgs.gov/fdsnws/event/1/query?eventid=tx2026fcxjta&format=geojson","felt":null,"cdi":null,"mmi":null,"alert":null,"status":"reviewed","tsunami":0,"sig":104,"net":"tx","code":"2026fcxjta","ids":",us6000sga2,tx2026fcxjta,","sources":",us,tx,","types":",origin,phase-data,","nst":36,"dmin":0,"rms":0.2,"gap":48,"magType":"ml","type":"earthquake","title":"M 2.6 - 49 km W of Mentone, Texas"},"geometry":{"type":"Point","coordinates":[-104.118,31.665,6.0999]},"id":"tx2026fcxjta"},
{"type":"Feature","properties":{"mag":2.9,"place":"10 km SW of Rotan, Texas","time":1773467498903,"updated":1779823016040,"tz":null,"url":"https://earthquake.usgs.gov/earthquakes/eventpage/tx2026fcpyki","detail":"https://earthquake.usgs.gov/fdsnws/event/1/query?eventid=tx2026fcpyki&format=geojson","felt":1,"cdi":3.4,"mmi":null,"alert":null,"status":"reviewed","tsunami":0,"sig":130,"net":"tx","code":"2026fcpyki","ids":",tx2026fcpyki,us6000sg8j,","sources":",tx,us,","types":",dyfi,origin,phase-data,","nst":38,"dmin":0,"rms":0.2,"gap":68,"magType":"ml","type":"earthquake","title":"M 2.9 - 10 km SW of Rotan, Texas"},"geometry":{"type":"Point","coordinates":[-100.557,32.791,4.5654]},"id":"tx2026fcpyki"},
{"type":"Feature","properties":{"mag":2.7,"place":"49 km NW of Toyah, Texas","time":1773430476106,"updated":1779823015040,"tz":null,"url":"https://earthquake.usgs.gov/earthquakes/eventpage/tx2026fbvmgq","detail":"https://earthquake.usgs.gov/fdsnws/event/1/query?eventid=tx2026fbvmgq&format=geojson","felt":null,"cdi":null,"mmi":null,"alert":null,"status":"reviewed","tsunami":0,"sig":112,"net":"tx","code":"2026fbvmgq","ids":",us6000sg4w,tx2026fbvmgq,","sources":",us,tx,","types":",origin,phase-data,","nst":32,"dmin":0.1,"rms":0.1,"gap":50,"magType":"ml","type":"earthquake","title":"M 2.7 - 49 km NW of Toyah, Texas"},"geometry":{"type":"Point","coordinates":[-104.131,31.656,6.0999]},"id":"tx2026fbvmgq"},
{"type":"Feature","properties":{"mag":3.1,"place":"56 km S of Whites City, New Mexico","time":1773292795037,"updated":1779823013040,"tz":null,"url":"https://earthquake.usgs.gov/earthquakes/eventpage/tx2026eyxlhm","detail":"https://earthquake.usgs.gov/fdsnws/event/1/query?eventid=tx2026eyxlhm&format=geojson","felt":null,"cdi":null,"mmi":null,"alert":null,"status":"reviewed","tsunami":0,"sig":148,"net":"tx","code":"2026eyxlhm","ids":",us6000sfs0,tx2026eyxlhm,","sources":",us,tx,","types":",origin,phase-data,","nst":16,"dmin":0.1,"rms":0.2,"gap":69,"magType":"ml","type":"earthquake","title":"M 3.1 - 56 km S of Whites City, New Mexico"},"geometry":{"type":"Point","coordinates":[-104.362,31.669,7.561]},"id":"tx2026eyxlhm"},
{"type":"Feature","properties":{"mag":3.2,"place":"55 km S of Whites City, New Mexico","time":1773292785712,"updated":1779823013040,"tz":null,"url":"https://earthquake.usgs.gov/earthquakes/eventpage/tx2026eyxjzv","detail":"https://earthquake.usgs.gov/fdsnws/event/1/query?eventid=tx2026eyxjzv&format=geojson","felt":null,"cdi":null,"mmi":null,"alert":null,"status":"reviewed","tsunami":0,"sig":158,"net":"tx","code":"2026eyxjzv","ids":",us6000sfry,tx2026eyxjzv,","sources":",us,tx,","types":",origin,phase-data,","nst":37,"dmin":0,"rms":0.2,"gap":57,"magType":"ml","type":"earthquake","title":"M 3.2 - 55 km S of Whites City, New Mexico"},"geometry":{"type":"Point","coordinates":[-104.372,31.676,5.6384]},"id":"tx2026eyxjzv"},
{"type":"Feature","properties":{"mag":2.5,"place":"55 km S of Whites City, New Mexico","time":1773266843464,"updated":1779487111040,"tz":null,"url":"https://earthquake.usgs.gov/earthquakes/eventpage/tx2026eyjcot","detail":"https://earthquake.usgs.gov/fdsnws/event/1/query?eventid=tx2026eyjcot&format=geojson","felt":null,"cdi":null,"mmi":null,"alert":null,"status":"reviewed","tsunami":0,"sig":96,"net":"tx","code":"2026eyjcot","ids":",us6000sfp3,tx2026eyjcot,","sources":",us,tx,","types":",origin,phase-data,","nst":51,"dmin":0,"rms":0.2,"gap":66,"magType":"ml","type":"earthquake","title":"M 2.5 - 55 km S of Whites City, New Mexico"},"geometry":{"type":"Point","coordinates":[-104.371,31.671,6.0999]},"id":"tx2026eyjcot"},
{"type":"Feature","properties":{"mag":2.8,"place":"54 km W of Mentone, Texas","time":1773183816196,"updated":1779487124040,"tz":null,"url":"https://earthquake.usgs.gov/earthquakes/eventpage/tx2026ewpfwj","detail":"https://earthquake.usgs.gov/fdsnws/event/1/query?eventid=tx2026ewpfwj&format=geojson","felt":null,"cdi":null,"mmi":null,"alert":null,"status":"reviewed","tsunami":0,"sig":121,"net":"tx","code":"2026ewpfwj","ids":",us7000s3ib,tx2026ewpfwj,","sources":",us,tx,","types":",origin,phase-data,","nst":37,"dmin":0.1,"rms":0.2,"gap":62,"magType":"ml","type":"earthquake","title":"M 2.8 - 54 km W of Mentone, Texas"},"geometry":{"type":"Point","coordinates":[-104.176,31.708,7.5354]},"id":"tx2026ewpfwj"},
{"type":"Feature","properties":{"mag":2.7,"place":"56 km S of Whites City, New Mexico","time":1773109336926,"updated":1779487123040,"tz":null,"url":"https://earthquake.usgs.gov/earthquakes/eventpage/tx2026evacly","detail":"https://earthquake.usgs.gov/fdsnws/event/1/query?eventid=tx2026evacly&format=geojson","felt":null,"cdi":null,"mmi":null,"alert":null,"status":"reviewed","tsunami":0,"sig":112,"net":"tx","code":"2026evacly","ids":",us7000s3at,tx2026evacly,","sources":",us,tx,","types":",origin,phase-data,","nst":33,"dmin":0.1,"rms":0.2,"gap":69,"magType":"ml","type":"earthquake","title":"M 2.7 - 56 km S of Whites City, New Mexico"},"geometry":{"type":"Point","coordinates":[-104.359,31.67,6.0999]},"id":"tx2026evacly"},
{"type":"Feature","properties":{"mag":2.8,"place":"33 km SE of Malaga, New Mexico","time":1772946914593,"updated":1779487120040,"tz":null,"url":"https://earthquake.usgs.gov/earthquakes/eventpage/tx2026erojtf","detail":"https://earthquake.usgs.gov/fdsnws/event/1/query?eventid=tx2026erojtf&format=geojson","felt":null,"cdi":null,"mmi":null,"alert":null,"status":"reviewed","tsunami":0,"sig":121,"net":"tx","code":"2026erojtf","ids":",us7000s2xl,tx2026erojtf,","sources":",us,tx,","types":",origin,phase-data,","nst":47,"dmin":0,"rms":0.2,"gap":42,"magType":"ml","type":"earthquake","title":"M 2.8 - 33 km SE of Malaga, New Mexico"},"geometry":{"type":"Point","coordinates":[-103.831,32.001,7.0355]},"id":"tx2026erojtf"},
{"type":"Feature","properties":{"mag":2.5,"place":"19 km WSW of Carlsbad, New Mexico","time":1772903819565,"updated":1779487119040,"tz":null,"url":"https://earthquake.usgs.gov/earthquakes/eventpage/us7000s2u9","detail":"https://earthquake.usgs.gov/fdsnws/event/1/query?eventid=us7000s2u9&format=geojson","felt":null,"cdi":null,"mmi":null,"alert":null,"status":"reviewed","tsunami":0,"sig":96,"net":"us","code":"7000s2u9","ids":",us7000s2u9,","sources":",us,","types":",origin,phase-data,","nst":27,"dmin":0.487,"rms":0.56,"gap":91,"magType":"ml","type":"earthquake","title":"M 2.5 - 19 km WSW of Carlsbad, New Mexico"},"geometry":{"type":"Point","coordinates":[-104.433,32.3786,5]},"id":"us7000s2u9"},
{"type":"Feature","properties":{"mag":2.8,"place":"54 km S of Whites City, New Mexico","time":1772881167969,"updated":1779487118040,"tz":null,"url":"https://earthquake.usgs.gov/earthquakes/eventpage/tx2026eqebmq","detail":"https://earthquake.usgs.gov/fdsnws/event/1/query?eventid=tx2026eqebmq&format=geojson","felt":null,"cdi":null,"mmi":null,"alert":null,"status":"reviewed","tsunami":0,"sig":121,"net":"tx","code":"2026eqebmq","ids":",us7000s2rm,tx2026eqebmq,","sources":",us,tx,","types":",origin,phase-data,","nst":37,"dmin":0,"rms":0.2,"gap":65,"magType":"ml","type":"earthquake","title":"M 2.8 - 54 km S of Whites City, New Mexico"},"geometry":{"type":"Point","coordinates":[-104.376,31.68,6.0999]},"id":"tx2026eqebmq"},
{"type":"Feature","properties":{"mag":2.6,"place":"55 km S of Whites City, New Mexico","time":1772878543671,"updated":1779487118040,"tz":null,"url":"https://earthquake.usgs.gov/earthquakes/eventpage/tx2026eqcpuq","detail":"https://earthquake.usgs.gov/fdsnws/event/1/query?eventid=tx2026eqcpuq&format=geojson","felt":null,"cdi":null,"mmi":null,"alert":null,"status":"reviewed","tsunami":0,"sig":104,"net":"tx","code":"2026eqcpuq","ids":",us7000s2rf,tx2026eqcpuq,","sources":",us,tx,","types":",origin,phase-data,","nst":35,"dmin":0.1,"rms":0.2,"gap":71,"magType":"ml","type":"earthquake","title":"M 2.6 - 55 km S of Whites City, New Mexico"},"geometry":{"type":"Point","coordinates":[-104.36,31.673,6.0999]},"id":"tx2026eqcpuq"},
{"type":"Feature","properties":{"mag":2.7,"place":"33 km SE of Malaga, New Mexico","time":1772877239257,"updated":1779487118040,"tz":null,"url":"https://earthquake.usgs.gov/earthquakes/eventpage/tx2026eqbxbv","detail":"https://earthquake.usgs.gov/fdsnws/event/1/query?eventid=tx2026eqbxbv&format=geojson","felt":null,"cdi":null,"mmi":null,"alert":null,"status":"reviewed","tsunami":0,"sig":112,"net":"tx","code":"2026eqbxbv","ids":",us7000s2rc,tx2026eqbxbv,","sources":",us,tx,","types":",origin,phase-data,","nst":45,"dmin":0,"rms":0.1,"gap":27,"magType":"ml","type":"earthquake","title":"M 2.7 - 33 km SE of Malaga, New Mexico"},"geometry":{"type":"Point","coordinates":[-103.83,32.002,6.9202]},"id":"tx2026eqbxbv"},
{"type":"Feature","properties":{"mag":3,"place":"55 km S of Whites City, New Mexico","time":1772876002480,"updated":1779487118040,"tz":null,"url":"https://earthquake.usgs.gov/earthquakes/eventpage/tx2026eqbfgy","detail":"https://earthquake.usgs.gov/fdsnws/event/1/query?eventid=tx2026eqbfgy&format=geojson","felt":null,"cdi":null,"mmi":null,"alert":null,"status":"reviewed","tsunami":0,"sig":138,"net":"tx","code":"2026eqbfgy","ids":",us7000s2r8,tx2026eqbfgy,","sources":",us,tx,","types":",origin,phase-data,","nst":46,"dmin":0.1,"rms":0.2,"gap":66,"magType":"ml","type":"earthquake","title":"M 3.0 - 55 km S of Whites City, New Mexico"},"geometry":{"type":"Point","coordinates":[-104.365,31.672,5.741]},"id":"tx2026eqbfgy"},
{"type":"Feature","properties":{"mag":2.6,"place":"56 km S of Whites City, New Mexico","time":1772871198979,"updated":1779487118040,"tz":null,"url":"https://earthquake.usgs.gov/earthquakes/eventpage/tx2026epymur","detail":"https://earthquake.usgs.gov/fdsnws/event/1/query?eventid=tx2026epymur&format=geojson","felt":null,"cdi":null,"mmi":null,"alert":null,"status":"reviewed","tsunami":0,"sig":104,"net":"tx","code":"2026epymur","ids":",us7000s2r4,tx2026epymur,","sources":",us,tx,","types":",origin,phase-data,","nst":18,"dmin":0.1,"rms":0.2,"gap":69,"magType":"ml","type":"earthquake","title":"M 2.6 - 56 km S of Whites City, New Mexico"},"geometry":{"type":"Point","coordinates":[-104.363,31.664,6.0999]},"id":"tx2026epymur"},
{"type":"Feature","properties":{"mag":3.6,"place":"55 km S of Whites City, New Mexico","time":1772871162709,"updated":1779487118040,"tz":null,"url":"https://earthquake.usgs.gov/earthquakes/eventpage/tx2026epynth","detail":"https://earthquake.usgs.gov/fdsnws/event/1/query?eventid=tx2026epynth&format=geojson","felt":null,"cdi":null,"mmi":4.326,"alert":null,"status":"reviewed","tsunami":0,"sig":199,"net":"tx","code":"2026epynth","ids":",us7000s2r1,tx2026epynth,","sources":",us,tx,","types":",moment-tensor,origin,phase-data,shakemap,","nst":53,"dmin":0.1,"rms":0.2,"gap":65,"magType":"ml","type":"earthquake","title":"M 3.6 - 55 km S of Whites City, New Mexico"},"geometry":{"type":"Point","coordinates":[-104.367,31.677,6.0999]},"id":"tx2026epynth"},
{"type":"Feature","properties":{"mag":3.9,"place":"55 km S of Whites City, New Mexico","time":1772867486002,"updated":1779487118040,"tz":null,"url":"https://earthquake.usgs.gov/earthquakes/eventpage/tx2026epwmrs","detail":"https://earthquake.usgs.gov/fdsnws/event/1/query?eventid=tx2026epwmrs&format=geojson","felt":7,"cdi":4.1,"mmi":4.654,"alert":null,"status":"reviewed","tsunami":0,"sig":237,"net":"tx","code":"2026epwmrs","ids":",us7000s2qt,tx2026epwmrs,","sources":",us,tx,","types":",dyfi,moment-tensor,origin,phase-data,shakemap,","nst":62,"dmin":0.1,"rms":0.2,"gap":65,"magType":"ml","type":"earthquake","title":"M 3.9 - 55 km S of Whites City, New Mexico"},"geometry":{"type":"Point","coordinates":[-104.367,31.676,6.0999]},"id":"tx2026epwmrs"},
{"type":"Feature","properties":{"mag":3,"place":"58 km S of Whites City, New Mexico","time":1772845525934,"updated":1779487118040,"tz":null,"url":"https://earthquake.usgs.gov/earthquakes/eventpage/tx2026epkjov","detail":"https://earthquake.usgs.gov/fdsnws/event/1/query?eventid=tx2026epkjov&format=geojson","felt":null,"cdi":null,"mmi":null,"alert":null,"status":"reviewed","tsunami":0,"sig":138,"net":"tx","code":"2026epkjov","ids":",us7000s2pk,tx2026epkjov,","sources":",us,tx,","types":",origin,phase-data,","nst":45,"dmin":0,"rms":0.2,"gap":79,"magType":"ml","type":"earthquake","title":"M 3.0 - 58 km S of Whites City, New Mexico"},"geometry":{"type":"Point","coordinates":[-104.429,31.649,6.0229]},"id":"tx2026epkjov"},
{"type":"Feature","properties":{"mag":2.6,"place":"56 km SSE of Whites City, New Mexico","time":1772800264989,"updated":1779487117040,"tz":null,"url":"https://earthquake.usgs.gov/earthquakes/eventpage/tx2026eoljny","detail":"https://earthquake.usgs.gov/fdsnws/event/1/query?eventid=tx2026eoljny&format=geojson","felt":null,"cdi":null,"mmi":null,"alert":null,"status":"reviewed","tsunami":0,"sig":104,"net":"tx","code":"2026eoljny","ids":",us7000s2hk,tx2026eoljny,","sources":",us,tx,","types":",origin,phase-data,","nst":31,"dmin":0,"rms":0.1,"gap":61,"magType":"ml","type":"earthquake","title":"M 2.6 - 56 km SSE of Whites City, New Mexico"},"geometry":{"type":"Point","coordinates":[-104.21,31.683,6.1511]},"id":"tx2026eoljny"},
{"type":"Feature","properties":{"mag":2.54,"place":"7 km ENE of Calumet, Oklahoma","time":1772776568580,"updated":1779487117040,"tz":null,"url":"https://earthquake.usgs.gov/earthquakes/eventpage/ok2026enjy","detail":"https://earthquake.usgs.gov/fdsnws/event/1/query?eventid=ok2026enjy&format=geojson","felt":6,"cdi":3.8,"mmi":null,"alert":null,"status":"reviewed","tsunami":0,"sig":102,"net":"ok","code":"2026enjy","ids":",us7000s2gc,ok2026enjy,","sources":",us,ok,","types":",dyfi,origin,phase-data,","nst":95,"dmin":0,"rms":0.2,"gap":40,"magType":"ml","type":"earthquake","title":"M 2.5 - 7 km ENE of Calumet, Oklahoma"},"geometry":{"type":"Point","coordinates":[-98.03783333,35.6205,7.13]},"id":"ok2026enjy"},
{"type":"Feature","properties":{"mag":2.6,"place":"24 km W of Carlsbad, New Mexico","time":1772730386671,"updated":1779487115040,"tz":null,"url":"https://earthquake.usgs.gov/earthquakes/eventpage/us7000s29q","detail":"https://earthquake.usgs.gov/fdsnws/event/1/query?eventid=us7000s29q&format=geojson","felt":null,"cdi":null,"mmi":null,"alert":null,"status":"reviewed","tsunami":0,"sig":104,"net":"us","code":"7000s29q","ids":",us7000s29q,","sources":",us,","types":",origin,phase-data,","nst":37,"dmin":0.537,"rms":0.47,"gap":78,"magType":"ml","type":"earthquake","title":"M 2.6 - 24 km W of Carlsbad, New Mexico"},"geometry":{"type":"Point","coordinates":[-104.4905,32.3996,6.338]},"id":"us7000s29q"},
{"type":"Feature","properties":{"mag":3.8,"place":"21 km N of Stanton, Texas","time":1772638423234,"updated":1778882565040,"tz":null,"url":"https://earthquake.usgs.gov/earthquakes/eventpage/tx2026ekzzen","detail":"https://earthquake.usgs.gov/fdsnws/event/1/query?eventid=tx2026ekzzen&format=geojson","felt":7,"cdi":3.9,"mmi":4.676,"alert":null,"status":"reviewed","tsunami":0,"sig":225,"net":"tx","code":"2026ekzzen","ids":",us7000s1zk,tx2026ekzzen,","sources":",us,tx,","types":",dyfi,moment-tensor,origin,phase-data,shakemap,","nst":49,"dmin":0,"rms":0.1,"gap":33,"magType":"ml","type":"earthquake","title":"M 3.8 - 21 km N of Stanton, Texas"},"geometry":{"type":"Point","coordinates":[-101.789,32.325,5.6885]},"id":"tx2026ekzzen"},
{"type":"Feature","properties":{"mag":2.9,"place":"24 km SSW of Westbrook, Texas","time":1772540407033,"updated":1778882561040,"tz":null,"url":"https://earthquake.usgs.gov/earthquakes/eventpage/tx2026eixvly","detail":"https://earthquake.usgs.gov/fdsnws/event/1/query?eventid=tx2026eixvly&format=geojson","felt":2,"cdi":4.1,"mmi":null,"alert":null,"status":"reviewed","tsunami":0,"sig":130,"net":"tx","code":"2026eixvly","ids":",tx2026eixvly,us7000s1p9,","sources":",tx,us,","types":",dyfi,origin,phase-data,","nst":32,"dmin":0.2,"rms":0.1,"gap":54,"magType":"ml","type":"earthquake","title":"M 2.9 - 24 km SSW of Westbrook, Texas"},"geometry":{"type":"Point","coordinates":[-101.084,32.14,8.2275]},"id":"tx2026eixvly"},
{"type":"Feature","properties":{"mag":2.6,"place":"19 km NW of Midland, Texas","time":1772535143191,"updated":1778882561040,"tz":null,"url":"https://earthquake.usgs.gov/earthquakes/eventpage/tx2026eiuxwb","detail":"https://earthquake.usgs.gov/fdsnws/event/1/query?eventid=tx2026eiuxwb&format=geojson","felt":1,"cdi":2,"mmi":null,"alert":null,"status":"reviewed","tsunami":0,"sig":104,"net":"tx","code":"2026eiuxwb","ids":",tx2026eiuxwb,us7000s1nw,","sources":",tx,us,","types":",dyfi,origin,phase-data,","nst":28,"dmin":0,"rms":0.1,"gap":67,"magType":"ml","type":"earthquake","title":"M 2.6 - 19 km NW of Midland, Texas"},"geometry":{"type":"Point","coordinates":[-102.214,32.132,5.9326]},"id":"tx2026eiuxwb"},
{"type":"Feature","properties":{"mag":2.6,"place":"57 km S of Whites City, New Mexico","time":1772517397977,"updated":1778882561040,"tz":null,"url":"https://earthquake.usgs.gov/earthquakes/eventpage/tx2026eilczs","detail":"https://earthquake.usgs.gov/fdsnws/event/1/query?eventid=tx2026eilczs&format=geojson","felt":null,"cdi":null,"mmi":null,"alert":null,"status":"reviewed","tsunami":0,"sig":104,"net":"tx","code":"2026eilczs","ids":",us7000s1mr,tx2026eilczs,","sources":",us,tx,","types":",origin,phase-data,","nst":45,"dmin":0,"rms":0.2,"gap":67,"magType":"ml","type":"earthquake","title":"M 2.6 - 57 km S of Whites City, New Mexico"},"geometry":{"type":"Point","coordinates":[-104.419,31.657,5.946]},"id":"tx2026eilczs"},
{"type":"Feature","properties":{"mag":3.27,"place":"7 km SE of Ratliff City, Oklahoma","time":1772353836329,"updated":1778882554040,"tz":null,"url":"https://earthquake.usgs.gov/earthquakes/eventpage/ok2026eeln","detail":"https://earthquake.usgs.gov/fdsnws/event/1/query?eventid=ok2026eeln&format=geojson","felt":3,"cdi":5.2,"mmi":null,"alert":null,"status":"reviewed","tsunami":0,"sig":166,"net":"ok","code":"2026eeln","ids":",ok2026eeln,us7000s17k,","sources":",ok,us,","types":",dyfi,origin,phase-data,","nst":96,"dmin":0,"rms":0.42,"gap":41,"magType":"ml","type":"earthquake","title":"M 3.3 - 7 km SE of Ratliff City, Oklahoma"},"geometry":{"type":"Point","coordinates":[-97.44766667,34.40716667,5.02]},"id":"ok2026eeln"}],"bbox":[-104.491,31.056,3.142,-97.44766667,35.62266667,11.27]}