{
  "type": "FeatureCollection",
  "features": [
    {
      "type": "Feature",
      "id": 1,
      "geometry": {
        "type": "Polygon",
        "coordinates": [
          [
            [
              2.333333333333333,
              58.75
            ],
            [
              3.0,
              58.75
            ],
            [
              3.0,
              59.0
            ],
            [
              2.333333333333333,
              59.0
            ],
            [
              2.333333333333333,
              58.75
            ]
          ]
        ]
      },
      "properties": {
        "block": "15/3",
        "quadrant": 15,
        "licence": "PL-1201",
        "operator": "DeltaForge Energy",
        "licence_round": "APA-2025",
        "awarded_year": 2025,
        "term_years": 6,
        "relinquish_by": 2031,
        "work_commitment": "One firm well",
        "area_km2": 1067.6
      }
    },
    {
      "type": "Feature",
      "id": 2,
      "geometry": {
        "type": "Polygon",
        "coordinates": [
          [
            [
              2.333333333333333,
              58.5
            ],
            [
              3.0,
              58.5
            ],
            [
              3.0,
              58.75
            ],
            [
              2.333333333333333,
              58.75
            ],
            [
              2.333333333333333,
              58.5
            ]
          ]
        ]
      },
      "properties": {
        "block": "15/6",
        "quadrant": 15,
        "licence": "PL-1201",
        "operator": "DeltaForge Energy",
        "licence_round": "APA-2025",
        "awarded_year": 2025,
        "term_years": 6,
        "relinquish_by": 2031,
        "work_commitment": "One firm well",
        "area_km2": 1075.3
      }
    },
    {
      "type": "Feature",
      "id": 3,
      "geometry": {
        "type": "Polygon",
        "coordinates": [
          [
            [
              2.333333333333333,
              58.25
            ],
            [
              3.0,
              58.25
            ],
            [
              3.0,
              58.5
            ],
            [
              2.333333333333333,
              58.5
            ],
            [
              2.333333333333333,
              58.25
            ]
          ]
        ]
      },
      "properties": {
        "block": "15/9",
        "quadrant": 15,
        "licence": "PL-1204",
        "operator": "Nordfjell Petroleum",
        "licence_round": "APA-2025",
        "awarded_year": 2025,
        "term_years": 4,
        "relinquish_by": 2029,
        "work_commitment": "Seismic reprocessing",
        "area_km2": 1083.0
      }
    },
    {
      "type": "Feature",
      "id": 4,
      "geometry": {
        "type": "Polygon",
        "coordinates": [
          [
            [
              2.333333333333333,
              58.0
            ],
            [
              3.0,
              58.0
            ],
            [
              3.0,
              58.25
            ],
            [
              2.333333333333333,
              58.25
            ],
            [
              2.333333333333333,
              58.0
            ]
          ]
        ]
      },
      "properties": {
        "block": "15/12",
        "quadrant": 15,
        "licence": "PL-1207",
        "operator": "DeltaForge Energy",
        "licence_round": "APA-2025",
        "awarded_year": 2025,
        "term_years": 6,
        "relinquish_by": 2031,
        "work_commitment": "One firm well",
        "area_km2": 1090.6
      }
    }
  ]
}
