{
  "type": "FeatureCollection",
  "features": [
    {
      "type": "Feature",
      "id": 8,
      "geometry": {
        "type": "Polygon",
        "coordinates": [
          [
            [
              1.0,
              59.5
            ],
            [
              1.6666666666666665,
              59.5
            ],
            [
              1.6666666666666665,
              59.75
            ],
            [
              1.0,
              59.75
            ],
            [
              1.0,
              59.5
            ]
          ]
        ]
      },
      "properties": {
        "block": "25/4",
        "quadrant": 25,
        "licence": "PL-1301",
        "operator": "DeltaForge Energy",
        "licence_round": "APA-2026",
        "awarded_year": 2026,
        "term_years": 6,
        "relinquish_by": 2032,
        "work_commitment": "One firm well",
        "area_km2": 1044.4
      }
    },
    {
      "type": "Feature",
      "id": 9,
      "geometry": {
        "type": "Polygon",
        "coordinates": [
          [
            [
              1.6666666666666665,
              59.5
            ],
            [
              2.333333333333333,
              59.5
            ],
            [
              2.333333333333333,
              59.75
            ],
            [
              1.6666666666666665,
              59.75
            ],
            [
              1.6666666666666665,
              59.5
            ]
          ]
        ]
      },
      "properties": {
        "block": "25/5",
        "quadrant": 25,
        "licence": "PL-1301",
        "operator": "DeltaForge Energy",
        "licence_round": "APA-2026",
        "awarded_year": 2026,
        "term_years": 6,
        "relinquish_by": 2032,
        "work_commitment": "One firm well",
        "area_km2": 1044.4
      }
    },
    {
      "type": "Feature",
      "id": 10,
      "geometry": {
        "type": "Polygon",
        "coordinates": [
          [
            [
              1.6666666666666665,
              59.25
            ],
            [
              2.333333333333333,
              59.25
            ],
            [
              2.333333333333333,
              59.5
            ],
            [
              1.6666666666666665,
              59.5
            ],
            [
              1.6666666666666665,
              59.25
            ]
          ]
        ]
      },
      "properties": {
        "block": "25/8",
        "quadrant": 25,
        "licence": "PL-1305",
        "operator": "Nordfjell Petroleum",
        "licence_round": "APA-2026",
        "awarded_year": 2026,
        "term_years": 4,
        "relinquish_by": 2030,
        "work_commitment": "Seismic reprocessing",
        "area_km2": 1052.1
      }
    },
    {
      "type": "Feature",
      "id": 11,
      "geometry": {
        "type": "Polygon",
        "coordinates": [
          [
            [
              1.0,
              59.0
            ],
            [
              1.6666666666666665,
              59.0
            ],
            [
              1.6666666666666665,
              59.25
            ],
            [
              1.0,
              59.25
            ],
            [
              1.0,
              59.0
            ]
          ]
        ]
      },
      "properties": {
        "block": "25/10",
        "quadrant": 25,
        "licence": "PL-1308",
        "operator": "Havlys Exploration",
        "licence_round": "APA-2026",
        "awarded_year": 2026,
        "term_years": 6,
        "relinquish_by": 2032,
        "work_commitment": "One firm well",
        "area_km2": 1059.9
      }
    },
    {
      "type": "Feature",
      "id": 12,
      "geometry": {
        "type": "Polygon",
        "coordinates": [
          [
            [
              1.6666666666666665,
              59.0
            ],
            [
              2.333333333333333,
              59.0
            ],
            [
              2.333333333333333,
              59.25
            ],
            [
              1.6666666666666665,
              59.25
            ],
            [
              1.6666666666666665,
              59.0
            ]
          ]
        ]
      },
      "properties": {
        "block": "25/11",
        "quadrant": 25,
        "licence": "PL-1308",
        "operator": "Havlys Exploration",
        "licence_round": "APA-2026",
        "awarded_year": 2026,
        "term_years": 6,
        "relinquish_by": 2032,
        "work_commitment": "One firm well",
        "area_km2": 1059.9
      }
    }
  ]
}
